<kml xmlns="http://www.opengis.net/kml/2.2" xmlns:gx="http://www.google.com/kml/ext/2.2" xmlns:xsi="http://www.w3.org/2001/XMLSchema-instance" xsi:schemaLocation="http://www.opengis.net/kml/2.2 https://developers.google.com/kml/schema/kml22gx.xsd">
<Document>
<Placemark><name>Point_0</name><ExtendedData><Data name="id"><value>1787841502376</value></Data><Data name="type"><value>Point</value></Data><Data name="名称"><value>起点：蓝塘里壤峰（Langtang Lirung）</value></Data></ExtendedData><Point><coordinates>85.51834144522392,28.281622471197878</coordinates></Point></Placemark>
<Placemark><name>Point_1</name><ExtendedData><Data name="id"><value>1787841579601</value></Data><Data name="type"><value>Point</value></Data><Data name="名称"><value>错坚河</value></Data></ExtendedData><Point><coordinates>85.48833385918623,28.318021975401948</coordinates></Point></Placemark>
<Placemark><name>Point_2</name><ExtendedData><Data name="id"><value>1787841620175</value></Data><Data name="type"><value>Point</value></Data><Data name="名称"><value>郭巴峡曲</value></Data></ExtendedData><Point><coordinates>85.48555951039349,28.332015989857766</coordinates></Point></Placemark>
<Placemark><name>Point_3</name><ExtendedData><Data name="id"><value>1787841684532</value></Data><Data name="type"><value>Point</value></Data><Data name="名称"><value>东林藏布（江）</value></Data></ExtendedData><Point><coordinates>85.44051685843657,28.335563244242252</coordinates></Point></Placemark>
<Placemark><name>Point_4</name><ExtendedData><Data name="id"><value>1787841872140</value></Data><Data name="type"><value>Point</value></Data><Data name="名称"><value>吉隆口岸</value></Data></ExtendedData><Point><coordinates>85.37789954750144,28.27934190280888</coordinates></Point></Placemark>
<Placemark><name>Point_5</name><ExtendedData><Data name="id"><value>1787841888103</value></Data><Data name="type"><value>Point</value></Data><Data name="名称"><value>吉隆藏布（江）</value></Data></ExtendedData><Point><coordinates>85.37718823062146,28.278297864439807</coordinates></Point></Placemark>
<Placemark><name>Point_6</name><ExtendedData><Data name="id"><value>1787841937281</value></Data><Data name="type"><value>Point</value></Data><Data name="名称"><value>波达哥西河</value></Data></ExtendedData><Point><coordinates>85.37773647782687,28.273294460034833</coordinates></Point></Placemark>
<Placemark><name>roadline</name><ExtendedData><Data name="id"><value>1787842236515</value></Data><Data name="type"><value>LineString</value></Data><Data name="名称"><value>泥石流路径</value></Data></ExtendedData><LineString><coordinates>85.51825890895279,28.28171790197935 85.51074765207876,28.294591230900124 85.4992539167279,28.30724108904967 85.49189389321376,28.31447524412299 85.49005685380139,28.315803314460155 85.48862192948822,28.317121460042102 85.48826007900927,28.318186949111833 85.48797309414662,28.318813056265213 85.48868431750184,28.32059249857143 85.48727434839412,28.322734380365958 85.48668576949827,28.323343333877546 85.48538888693692,28.325218450411697 85.48466839662504,28.32597400272485 85.48474984335596,28.327667082202368 85.48515081187735,28.328599091643127 85.48502691942868,28.329253427858376 85.48560622895837,28.330032482633086 85.48568668861527,28.331395814747154 85.48556945425243,28.332032324182578 85.48454784737066,28.33279931239784 85.48352624048893,28.333024118239436 85.48260979902147,28.333222475940033 85.48175345207648,28.333050565954224 85.48070930974882,28.33282576016859 85.47955249019154,28.33327537126432 85.47817782799036,28.333209252104822 85.47673555945143,28.33312990905914 85.47421187598076,28.333659508872316 85.47277658851858,28.333799879684378 85.47093647638758,28.334015834417798 85.46937851478332,28.334555719331135 85.46774694869383,28.33477167252839 85.46702317125563,28.335171184786276 85.4662380567464,28.335883824543657 85.46418939857388,28.335851431931104 85.46236155385708,28.33627253512398 85.4613065562353,28.336898788067757 85.46000621032938,28.336952775217668 85.45860772510981,28.33653167472083 85.45730737920391,28.336618054445992 85.45626464899635,28.336013394895105 85.45466862185451,28.33608919491806 85.45383121866823,28.335686048468517 85.45313261159018,28.335299189326193 85.4522813287931,28.33529104490806 85.4518047954882,28.335246250597137 85.45049085899703,28.335063000946818 85.44912140406258,28.334855317627714 85.44796939636434,28.334891967654684 85.44659531489295,28.335278828279684 85.44598574266152,28.33540264077361 85.4451632215004,28.335425994647537 85.44432478057483,28.335351262232905 85.44257360648986,28.335253175858952 85.4410506156947,28.335281200546476 85.44046689099972,28.33551941009189 85.43974519501317,28.335281200546476 85.4390341122029,28.335117723098406 85.4383336425689,28.335197126461736 85.43763847952303,28.33506167362978 85.43701760871109,28.334884183450654 85.43625876660757,28.33444045670572 85.43548931132781,28.33419757391323 85.43495135034473,28.333827991355946 85.43447049901854,28.33347576083615 85.43423491414062,28.333160456719213 85.4339315582704,28.33256961405297 85.43356062105725,28.332182252953487 85.43300387926776,28.331725425508395 85.43242826487526,28.331581455239927 85.43192499546105,28.331337812802815 85.43155697970188,28.33100557221566 85.43126445435487,28.330703786115407 85.43101281964776,28.33050720938735 85.43064794932246,28.330338319232027 85.43035542397544,28.330216496658252 85.4299496630102,28.330138973129507 85.42956906551571,28.330122360937438 85.4288235976959,28.33002822513322 85.42845243650291,28.330114054840408 85.42777439063573,28.33013368367395 85.4266449399795,28.330199089836185 85.4256294251351,28.330277577177753 85.42474766102629,28.3300115920634 85.42413835211964,28.3300115920634 85.42304357758005,28.329675839411124 85.42157231948839,28.329392411021914 85.42084412103897,28.329213632726123 85.42012087632052,28.329030493672263 85.4193660287105,28.328841614706562 85.41897188719642,28.328422237582643 85.41864271406375,28.32798760863534 85.41833086583283,28.32762922904361 85.41758589505893,28.327194596853488 85.41694054246993,28.326992530405505 85.41650741992697,28.327106907687423 85.41597467919914,28.327125970555755 85.41536397641357,28.327026843603008 85.41452273502009,28.326383073950296 85.41362459852368,28.325230332544848 85.41320739963504,28.323944960130518 85.41299880019072,28.323042129737814 85.41312627762892,28.32248614562468 85.41340140420371,28.320887545849402 85.41346102847716,28.320122100181123 85.41365480736583,28.319304160719327 85.41382871149672,28.318792398604614 85.41370449426037,28.318236893350246 85.41409205203777,28.317471428599248 85.41406775509479,28.316439533907285 85.41404298890627,28.315998633982247 85.41392741335987,28.315385731599022 85.41391365436625,28.314898798729104 85.41368148753399,28.313184040978356 85.41347479279668,28.31232687491088 85.41287646592552,28.3113212522821 85.41255203497687,28.31072447858884 85.41220743113408,28.30980385715918 85.4121361337873,28.308836149907464 85.41162516946865,28.308150903232033 85.41083495720844,28.307627811195843 85.41022892976075,28.30747088308337 85.40960507797637,28.30757550185075 85.40929018136138,28.30712040946301 85.40901093341982,28.30656069546589 85.40890529481871,28.3060337027253 85.4082079611935,28.305205114349107 85.40728385240563,28.30489064839648 85.40684164083842,28.304730919302656 85.40635974361777,28.303872371314725 85.40569642626696,28.30322346416861 85.40472351585674,28.302580481530086 85.40392176267358,28.30174044721663 85.40340864063637,28.301500436194615 85.40267102770785,28.30169103322693 85.40171694141988,28.300843932692317 85.40117174925534,28.30058274200057 85.40073078500458,28.299968588388452 85.40016154024454,28.29950267638715 85.39931969940221,28.299170889324458 85.3982533676686,28.298782626554512 85.39745963201729,28.298260234410677 85.39717121101471,28.297415831602365 85.39720478619294,28.296248090568028 85.39699494132894,28.295080336720744 85.39616395566752,28.294067780291954 85.39521545688227,28.292900002522785 85.39470343541412,28.292190460405862 85.39415626439965,28.291817286142276 85.39364800629502,28.291046512855715 85.39307762775536,28.290419944652342 85.39295338688534,28.289574569009545 85.39264278471029,28.289231444039146 85.39185216099196,28.28863470232605 85.39098201848329,28.288312758199012 85.39007386552002,28.28784190815587 85.38927180519266,28.287386003748864 85.38858008120661,28.286963729892648 85.38793928168582,28.286590034817692 85.3868299676572,28.28558043726865 85.38578102722141,28.284148344812962 85.38474021810684,28.283611305176308 85.38424882293418,28.283439801358867 85.38330067887928,28.282807064497888 85.38266364459238,28.282441771402375 85.38186364804608,28.281959060747027 85.38129328013805,28.28156767212289 85.38098957774547,28.2808501225759 85.38048587621631,28.280197800610452 85.38013032219571,28.279910777679845 85.37928588139683,28.27963027725025 85.37848226109007,28.279318199385017 85.37739130699596,28.27880332267347 85.37712007531509,28.278293751518518 85.3769091173411,28.2777364052762 85.37702714399914,28.276476626589584 85.37731112246985,28.27530952482394 85.37768729705046,28.273849535310774 85.37775357852323,28.27324633899653</coordinates></LineString></Placemark></Document></kml>