{
"type": "FeatureCollection",
"name": "anfang",
"crs": { "type": "name", "properties": { "name": "urn:ogc:def:crs:OGC:1.3:CRS84" } },
"features": [
{ "type": "Feature", "properties": { "SJ": "phone_pic", "FL": "取水管", "MC": "" }, "geometry": { "type": "Point", "coordinates": [ 116.4389191, 22.94181828 ] } },
{ "type": "Feature", "properties": { "SJ": "phone_pic", "FL": "取水管", "MC": "" }, "geometry": { "type": "Point", "coordinates": [ 116.4737318, 22.9471569 ] } },
{ "type": "Feature", "properties": { "SJ": "phone_pic", "FL": "取水管", "MC": "" }, "geometry": { "type": "Point", "coordinates": [ 116.5040971, 22.9490604 ] } },
{ "type": "Feature", "properties": { "SJ": "phone_pic", "FL": "取水管", "MC": "" }, "geometry": { "type": "Point", "coordinates": [ 116.5467683, 23.0557671 ] } },
{ "type": "Feature", "properties": { "SJ": "phone_pic", "FL": "取水管", "MC": "" }, "geometry": { "type": "Point", "coordinates": [ 116.4402925, 22.94215587 ] } },
{ "type": "Feature", "properties": { "SJ": "phone_pic", "FL": "排污口", "MC": "" }, "geometry": { "type": "Point", "coordinates": [ 116.5735703, 23.17969512 ] } },
{ "type": "Feature", "properties": { "SJ": "phone_pic", "FL": "排污口", "MC": "" }, "geometry": { "type": "Point", "coordinates": [ 116.9962618, 23.53942683 ] } },
{ "type": "Feature", "properties": { "SJ": "phone_pic", "FL": "取水管", "MC": "" }, "geometry": { "type": "Point", "coordinates": [ 117.1402895, 23.5920258 ] } },
{ "type": "Feature", "properties": { "SJ": "phone_pic", "FL": "取水管", "MC": "" }, "geometry": { "type": "Point", "coordinates": [ 117.1707458, 23.61239433 ] } },
{ "type": "Feature", "properties": { "SJ": "phone_pic", "FL": "无居民海岛构筑物", "MC": "" }, "geometry": { "type": "Point", "coordinates": [ 113.5400036, 22.66174548 ] } },
{ "type": "Feature", "properties": { "SJ": "plane_pic", "FL": "无居民海岛构筑物", "MC": "DJI_0091.JPG" }, "geometry": { "type": "Point", "coordinates": [ 113.6529706, 22.71983949 ] } },
{ "type": "Feature", "properties": { "SJ": "phone_pic", "FL": "排污口", "MC": "" }, "geometry": { "type": "Point", "coordinates": [ 115.0194244, 22.74120828 ] } },
{ "type": "Feature", "properties": { "SJ": "phone_pic", "FL": "无居民海岛构筑物", "MC": "" }, "geometry": { "type": "Point", "coordinates": [ 114.5265883, 22.67218287 ] } },
{ "type": "Feature", "properties": { "SJ": "phone_pic", "FL": "排污口", "MC": "" }, "geometry": { "type": "Point", "coordinates": [ 114.7878756, 22.59955791 ] } },
{ "type": "Feature", "properties": { "SJ": "phone_pic", "FL": "排污口", "MC": "" }, "geometry": { "type": "Point", "coordinates": [ 115.5059863, 22.6876068 ] } },
{ "type": "Feature", "properties": { "SJ": "phone_pic", "FL": "取水管", "MC": "" }, "geometry": { "type": "Point", "coordinates": [ 116.0228941, 22.84310799 ] } },
{ "type": "Feature", "properties": { "SJ": "phone_pic", "FL": "历史围填海", "MC": "" }, "geometry": { "type": "Point", "coordinates": [ 113.6055697, 22.83247539 ] } },
{ "type": "Feature", "properties": { "SJ": "phone_pic", "FL": "排污口", "MC": "" }, "geometry": { "type": "Point", "coordinates": [ 110.2964857, 20.97013635 ] } },
{ "type": "Feature", "properties": { "SJ": "phone_pic", "FL": "红树林", "MC": "" }, "geometry": { "type": "Point", "coordinates": [ 110.2478569, 20.96910477 ] } },
{ "type": "Feature", "properties": { "SJ": "phone_pic", "FL": "海岸垃圾", "MC": "" }, "geometry": { "type": "Point", "coordinates": [ 109.8282902, 20.55327831 ] } },
{ "type": "Feature", "properties": { "SJ": "phone_pic", "FL": "排污口", "MC": "" }, "geometry": { "type": "Point", "coordinates": [ 109.7470505, 20.74282794 ] } },
{ "type": "Feature", "properties": { "SJ": "phone_pic", "FL": "排污口", "MC": "" }, "geometry": { "type": "Point", "coordinates": [ 109.6765614, 21.11854167 ] } },
{ "type": "Feature", "properties": { "SJ": "phone_pic", "FL": "红树林", "MC": "" }, "geometry": { "type": "Point", "coordinates": [ 112.4104615, 21.8010348 ] } },
{ "type": "Feature", "properties": { "SJ": "phone_pic", "FL": "违规养殖", "MC": "" }, "geometry": { "type": "Point", "coordinates": [ 112.3998538, 21.91529952 ] } },
{ "type": "Feature", "properties": { "SJ": "phone_pic", "FL": "无居民海岛构筑物", "MC": "" }, "geometry": { "type": "Point", "coordinates": [ 113.9042956, 22.03858395 ] } },
{ "type": "Feature", "properties": { "SJ": "phone_pic", "FL": "无居民海岛构筑物", "MC": "" }, "geometry": { "type": "Point", "coordinates": [ 113.8851886, 22.12136541 ] } },
{ "type": "Feature", "properties": { "SJ": "phone_pic", "FL": "污水坑", "MC": "" }, "geometry": { "type": "Point", "coordinates": [ 111.1168901, 21.46717197 ] } },
{ "type": "Feature", "properties": { "SJ": "phone_pic", "FL": "取水井", "MC": "" }, "geometry": { "type": "Point", "coordinates": [ 111.143457, 21.465936 ] } },
{ "type": "Feature", "properties": { "SJ": "phone_pic", "FL": "取水井", "MC": "" }, "geometry": { "type": "Point", "coordinates": [ 111.1438732, 21.46609998 ] } },
{ "type": "Feature", "properties": { "SJ": "phone_pic", "FL": "取水管", "MC": "" }, "geometry": { "type": "Point", "coordinates": [ 111.1452278, 21.46642803 ] } },
{ "type": "Feature", "properties": { "SJ": "phone_pic", "FL": "取水井", "MC": "" }, "geometry": { "type": "Point", "coordinates": [ 111.146742, 21.46670703 ] } },
{ "type": "Feature", "properties": { "SJ": "phone_pic", "FL": "取水井", "MC": "" }, "geometry": { "type": "Point", "coordinates": [ 111.1476712, 21.46695903 ] } },
{ "type": "Feature", "properties": { "SJ": "phone_pic", "FL": "取水管", "MC": "" }, "geometry": { "type": "Point", "coordinates": [ 111.1486309, 21.46710501 ] } },
{ "type": "Feature", "properties": { "SJ": "phone_pic", "FL": "排污口", "MC": "" }, "geometry": { "type": "Point", "coordinates": [ 111.149311, 21.46729698 ] } },
{ "type": "Feature", "properties": { "SJ": "phone_pic", "FL": "排污口", "MC": "" }, "geometry": { "type": "Point", "coordinates": [ 111.156156, 21.46788396 ] } },
{ "type": "Feature", "properties": { "SJ": "phone_pic", "FL": "排污渠", "MC": "IMG_20260226_134251.jpg" }, "geometry": { "type": "Point", "coordinates": [ 111.2084798, 21.48198597 ] } },
{ "type": "Feature", "properties": { "SJ": "phone_pic", "FL": "取水管", "MC": "" }, "geometry": { "type": "Point", "coordinates": [ 111.2122001, 21.48316803 ] } },
{ "type": "Feature", "properties": { "SJ": "phone_pic", "FL": "排污口", "MC": "" }, "geometry": { "type": "Point", "coordinates": [ 111.4402072, 21.53830302 ] } },
{ "type": "Feature", "properties": { "SJ": "phone_pic", "FL": "排污口", "MC": "" }, "geometry": { "type": "Point", "coordinates": [ 111.4972672, 21.51360297 ] } },
{ "type": "Feature", "properties": { "SJ": "phone_pic", "FL": "排污口", "MC": "" }, "geometry": { "type": "Point", "coordinates": [ 111.506108, 21.51808704 ] } },
{ "type": "Feature", "properties": { "SJ": "phone_pic", "FL": "取水井", "MC": "" }, "geometry": { "type": "Point", "coordinates": [ 111.5080459, 21.51937098 ] } },
{ "type": "Feature", "properties": { "SJ": "phone_pic", "FL": "排污口", "MC": "" }, "geometry": { "type": "Point", "coordinates": [ 111.5193892, 21.52407699 ] } },
{ "type": "Feature", "properties": { "SJ": "phone_pic", "FL": "取水管", "MC": "" }, "geometry": { "type": "Point", "coordinates": [ 111.536779, 21.52390896 ] } },
{ "type": "Feature", "properties": { "SJ": "phone_mp4", "FL": "排污口", "MC": "VID_20260227_153342.mp4" }, "geometry": { "type": "Point", "coordinates": [ 111.56751, 21.52113102 ] } },
{ "type": "Feature", "properties": { "SJ": "phone_pic", "FL": "污水坑", "MC": "" }, "geometry": { "type": "Point", "coordinates": [ 111.5744411, 21.52538001 ] } },
{ "type": "Feature", "properties": { "SJ": "phone_pic", "FL": "红树林", "MC": "" }, "geometry": { "type": "Point", "coordinates": [ 111.7754791, 21.62786301 ] } },
{ "type": "Feature", "properties": { "SJ": "phone_pic", "FL": "排污渠", "MC": "" }, "geometry": { "type": "Point", "coordinates": [ 112.0786751, 21.785796 ] } },
{ "type": "Feature", "properties": { "SJ": "phone_pic", "FL": "排污渠", "MC": "" }, "geometry": { "type": "Point", "coordinates": [ 112.0863121, 21.78771597 ] } },
{ "type": "Feature", "properties": { "SJ": "phone_pic", "FL": "无居民海岛构筑物", "MC": "" }, "geometry": { "type": "Point", "coordinates": [ 113.5841332, 22.82336343 ] } },
{ "type": "Feature", "properties": { "SJ": "phone_pic", "FL": "无居民海岛构筑物", "MC": "" }, "geometry": { "type": "Point", "coordinates": [ 113.6099682, 22.78868418 ] } }
]
}
