{
"type": "FeatureCollection",
"name": "drone_footprints",
"crs": { "type": "name", "properties": { "name": "urn:ogc:def:crs:OGC:1.3:CRS84" } },
"features": [
{ "type": "Feature", "properties": { "filename": "DJI_0729.JPG", "datetime": "2022-10-12 08:39:59", "device": "drone", "model": "DJI FC3411", "lat": 22.7758992, "lon": 114.7971686, "altitude": 14.3, "heading": -143.2, "gimbal_pitch": -28.9, "flight_pitch": 4.7, "pitch_actual": -28.9, "focal_mm": 8.38, "focal_35mm": 22.0, "sensor_width_mm": 13.7127272727273, "sensor_height_mm": 9.1418181818181807, "hfov_deg": 78.5788137250007, "vfov_deg": 57.220919331930403 }, "geometry": { "type": "Polygon", "coordinates": [ [ [ 114.797192504233962, 22.775681824201733 ], [ 114.796935684093285, 22.775858969394111 ], [ 114.792646879987188, 22.774700473815173 ], [ 114.797198064827967, 22.771561232040579 ], [ 114.797192504233962, 22.775681824201733 ] ] ] } },
{ "type": "Feature", "properties": { "filename": "DJI_0730.JPG", "datetime": "2022-10-12 08:40:06", "device": "drone", "model": "DJI FC3411", "lat": 22.7758997, "lon": 114.7971691, "altitude": 14.1, "heading": -34.9, "gimbal_pitch": -22.4, "flight_pitch": -6.9, "pitch_actual": -22.4, "focal_mm": 8.38, "focal_35mm": 22.0, "sensor_width_mm": 13.7127272727273, "sensor_height_mm": 9.1418181818181807, "hfov_deg": 78.5788137250007, "vfov_deg": 57.220919331930403 }, "geometry": { "type": "Polygon", "coordinates": [ [ [ 114.796940994341369, 22.775946366772754 ], [ 114.79720036425374, 22.776113197208353 ], [ 114.797354537820553, 22.780234382275804 ], [ 114.792692970990885, 22.777235995849068 ], [ 114.796940994341369, 22.775946366772754 ] ] ] } },
{ "type": "Feature", "properties": { "filename": "DJI_0731.JPG", "datetime": "2022-10-12 08:40:14", "device": "drone", "model": "DJI FC3411", "lat": 22.7759005, "lon": 114.7971677, "altitude": 14.2, "heading": -2.4, "gimbal_pitch": -46.5, "flight_pitch": -7.8, "pitch_actual": -46.5, "focal_mm": 8.38, "focal_35mm": 22.0, "sensor_width_mm": 13.7127272727273, "sensor_height_mm": 9.1418181818181807, "hfov_deg": 78.5788137250007, "vfov_deg": 57.220919331930403 }, "geometry": { "type": "Polygon", "coordinates": [ [ [ 114.797063425141133, 22.775930416350199 ], [ 114.79726889411441, 22.775938356563451 ], [ 114.797472963348653, 22.77630782422986 ], [ 114.796826540821698, 22.776282843656727 ], [ 114.797063425141133, 22.775930416350199 ] ] ] } },
{ "type": "Feature", "properties": { "filename": "DJI_0782.JPG", "datetime": "2022-10-12 14:02:52", "device": "drone", "model": "DJI FC3411", "lat": 22.7204942, "lon": 114.8956472, "altitude": 31.5, "heading": 163.9, "gimbal_pitch": -26.4, "flight_pitch": 2.1, "pitch_actual": -26.4, "focal_mm": 8.38, "focal_35mm": 22.0, "sensor_width_mm": 13.7127272727273, "sensor_height_mm": 9.1418181818181807, "hfov_deg": 78.5788137250007, "vfov_deg": 57.220919331930403 }, "geometry": { "type": "Polygon", "coordinates": [ [ [ 114.896092990237264, 22.720244086018948 ], [ 114.89541446776694, 22.720063438178901 ], [ 114.8935179091701, 22.715393312689329 ], [ 114.900395806015965, 22.717224463850329 ], [ 114.896092990237264, 22.720244086018948 ] ] ] } },
{ "type": "Feature", "properties": { "filename": "DJI_0783.JPG", "datetime": "2022-10-12 14:03:14", "device": "drone", "model": "DJI FC3411", "lat": 22.7201073, "lon": 114.8957602, "altitude": 14.9, "heading": 163.9, "gimbal_pitch": -49.6, "flight_pitch": 0.2, "pitch_actual": -49.6, "focal_mm": 8.38, "focal_35mm": 22.0, "sensor_width_mm": 13.7127272727273, "sensor_height_mm": 9.1418181818181807, "hfov_deg": 78.5788137250007, "vfov_deg": 57.220919331930403 }, "geometry": { "type": "Polygon", "coordinates": [ [ [ 114.895870897344423, 22.72010769450382 ], [ 114.895666300756943, 22.720053223152124 ], [ 114.895585520583055, 22.719697674628794 ], [ 114.896144655011895, 22.719846537366411 ], [ 114.895870897344423, 22.72010769450382 ] ] ] } },
{ "type": "Feature", "properties": { "filename": "DJI_0785.JPG", "datetime": "2022-10-12 14:05:04", "device": "drone", "model": "DJI FC3411", "lat": 22.7185169, "lon": 114.895421, "altitude": 12.3, "heading": 148.5, "gimbal_pitch": -34.4, "flight_pitch": -0.8, "pitch_actual": -34.4, "focal_mm": 8.38, "focal_35mm": 22.0, "sensor_width_mm": 13.7127272727273, "sensor_height_mm": 9.1418181818181807, "hfov_deg": 78.5788137250007, "vfov_deg": 57.220919331930403 }, "geometry": { "type": "Polygon", "coordinates": [ [ [ 114.895616934748887, 22.718465381397674 ], [ 114.895381811956099, 22.718332476919578 ], [ 114.894957268797555, 22.714199987625992 ], [ 114.899801457498526, 22.716938192473993 ], [ 114.895616934748887, 22.718465381397674 ] ] ] } },
{ "type": "Feature", "properties": { "filename": "DJI_0844.JPG", "datetime": "2022-10-13 12:12:19", "device": "drone", "model": "DJI FC3411", "lat": 22.74578, "lon": 114.9394677, "altitude": 11.1, "heading": -11.7, "gimbal_pitch": -16.3, "flight_pitch": 2.1, "pitch_actual": -16.3, "focal_mm": 8.38, "focal_35mm": 22.0, "sensor_width_mm": 13.7127272727273, "sensor_height_mm": 9.1418181818181807, "hfov_deg": 78.5788137250007, "vfov_deg": 57.220919331930403 }, "geometry": { "type": "Polygon", "coordinates": [ [ [ 114.939318377890572, 22.745878992076626 ], [ 114.939562111216134, 22.745925541373229 ], [ 114.941489718919769, 22.749696804065369 ], [ 114.935925254529153, 22.748634077403985 ], [ 114.939318377890572, 22.745878992076626 ] ] ] } },
{ "type": "Feature", "properties": { "filename": "DJI_0845.JPG", "datetime": "2022-10-13 12:12:24", "device": "drone", "model": "DJI FC3411", "lat": 22.7457794, "lon": 114.9394674, "altitude": 10.9, "heading": 79.4, "gimbal_pitch": -16.3, "flight_pitch": 7.9, "pitch_actual": -16.3, "focal_mm": 8.38, "focal_35mm": 22.0, "sensor_width_mm": 13.7127272727273, "sensor_height_mm": 9.1418181818181807, "hfov_deg": 78.5788137250007, "vfov_deg": 57.220919331930403 }, "geometry": { "type": "Polygon", "coordinates": [ [ [ 114.93957560143771, 22.74591273692516 ], [ 114.939620562844425, 22.74569117208042 ], [ 114.94367490334524, 22.74383978563381 ], [ 114.942629594019834, 22.748990954498318 ], [ 114.93957560143771, 22.74591273692516 ] ] ] } },
{ "type": "Feature", "properties": { "filename": "DJI_0846.JPG", "datetime": "2022-10-13 12:12:36", "device": "drone", "model": "DJI FC3411", "lat": 22.7463163, "lon": 114.9387463, "altitude": 24.4, "heading": -83.4, "gimbal_pitch": -16.3, "flight_pitch": 22.2, "pitch_actual": -16.3, "focal_mm": 8.38, "focal_35mm": 22.0, "sensor_width_mm": 13.7127272727273, "sensor_height_mm": 9.1418181818181807, "hfov_deg": 78.5788137250007, "vfov_deg": 57.220919331930403 }, "geometry": { "type": "Polygon", "coordinates": [ [ [ 114.938419212731148, 22.746097223385661 ], [ 114.938482099947336, 22.746598470028182 ], [ 114.935348876947245, 22.749316602708056 ], [ 114.934695740414909, 22.744110735541476 ], [ 114.938419212731148, 22.746097223385661 ] ] ] } },
{ "type": "Feature", "properties": { "filename": "DJI_0847.JPG", "datetime": "2022-10-13 12:13:15", "device": "drone", "model": "DJI FC3411", "lat": 22.7472632, "lon": 114.9376608, "altitude": 24.6, "heading": 115.4, "gimbal_pitch": -16.1, "flight_pitch": 3.2, "pitch_actual": -16.1, "focal_mm": 8.38, "focal_35mm": 22.0, "sensor_width_mm": 13.7127272727273, "sensor_height_mm": 9.1418181818181807, "hfov_deg": 78.5788137250007, "vfov_deg": 57.220919331930403 }, "geometry": { "type": "Polygon", "coordinates": [ [ [ 114.93805015999402, 22.747374280903248 ], [ 114.937813545221985, 22.746914730145594 ], [ 114.939828547174869, 22.743413245587735 ], [ 114.942266011002999, 22.748147262569454 ], [ 114.93805015999402, 22.747374280903248 ] ] ] } }
]
}
