{
"type": "FeatureCollection",
"name": "photo_points",
"crs": { "type": "name", "properties": { "name": "urn:ogc:def:crs:OGC:1.3:CRS84" } },
"features": [
{ "type": "Feature", "properties": { "filename": "DJI_0729.JPG", "datetime": "2022-10-12 08:39:59", "device": "drone", "model": "DJI FC3411", "lat": 22.7758992, "lon": 114.7971686, "altitude": 14.3, "heading": -143.2, "gimbal_pitch": -28.9, "flight_pitch": 4.7, "pitch_actual": -28.9, "focal_mm": 8.38, "focal_35mm": 22.0, "sensor_width_mm": 13.712727272727273, "sensor_height_mm": 9.1418181818181825, "hfov_deg": 78.578813725000714, "vfov_deg": 57.220919331930432 }, "geometry": { "type": "Point", "coordinates": [ 114.7971686, 22.7758992 ] } },
{ "type": "Feature", "properties": { "filename": "DJI_0730.JPG", "datetime": "2022-10-12 08:40:06", "device": "drone", "model": "DJI FC3411", "lat": 22.7758997, "lon": 114.7971691, "altitude": 14.1, "heading": -34.9, "gimbal_pitch": -22.4, "flight_pitch": -6.9, "pitch_actual": -22.4, "focal_mm": 8.38, "focal_35mm": 22.0, "sensor_width_mm": 13.712727272727273, "sensor_height_mm": 9.1418181818181825, "hfov_deg": 78.578813725000714, "vfov_deg": 57.220919331930432 }, "geometry": { "type": "Point", "coordinates": [ 114.7971691, 22.7758997 ] } },
{ "type": "Feature", "properties": { "filename": "DJI_0731.JPG", "datetime": "2022-10-12 08:40:14", "device": "drone", "model": "DJI FC3411", "lat": 22.7759005, "lon": 114.7971677, "altitude": 14.2, "heading": -2.4, "gimbal_pitch": -46.5, "flight_pitch": -7.8, "pitch_actual": -46.5, "focal_mm": 8.38, "focal_35mm": 22.0, "sensor_width_mm": 13.712727272727273, "sensor_height_mm": 9.1418181818181825, "hfov_deg": 78.578813725000714, "vfov_deg": 57.220919331930432 }, "geometry": { "type": "Point", "coordinates": [ 114.7971677, 22.7759005 ] } },
{ "type": "Feature", "properties": { "filename": "DJI_0782.JPG", "datetime": "2022-10-12 14:02:52", "device": "drone", "model": "DJI FC3411", "lat": 22.7204942, "lon": 114.8956472, "altitude": 31.5, "heading": 163.9, "gimbal_pitch": -26.4, "flight_pitch": 2.1, "pitch_actual": -26.4, "focal_mm": 8.38, "focal_35mm": 22.0, "sensor_width_mm": 13.712727272727273, "sensor_height_mm": 9.1418181818181825, "hfov_deg": 78.578813725000714, "vfov_deg": 57.220919331930432 }, "geometry": { "type": "Point", "coordinates": [ 114.8956472, 22.7204942 ] } },
{ "type": "Feature", "properties": { "filename": "DJI_0783.JPG", "datetime": "2022-10-12 14:03:14", "device": "drone", "model": "DJI FC3411", "lat": 22.7201073, "lon": 114.8957602, "altitude": 14.9, "heading": 163.9, "gimbal_pitch": -49.6, "flight_pitch": 0.2, "pitch_actual": -49.6, "focal_mm": 8.38, "focal_35mm": 22.0, "sensor_width_mm": 13.712727272727273, "sensor_height_mm": 9.1418181818181825, "hfov_deg": 78.578813725000714, "vfov_deg": 57.220919331930432 }, "geometry": { "type": "Point", "coordinates": [ 114.8957602, 22.7201073 ] } },
{ "type": "Feature", "properties": { "filename": "DJI_0785.JPG", "datetime": "2022-10-12 14:05:04", "device": "drone", "model": "DJI FC3411", "lat": 22.7185169, "lon": 114.895421, "altitude": 12.3, "heading": 148.5, "gimbal_pitch": -34.4, "flight_pitch": -0.8, "pitch_actual": -34.4, "focal_mm": 8.38, "focal_35mm": 22.0, "sensor_width_mm": 13.712727272727273, "sensor_height_mm": 9.1418181818181825, "hfov_deg": 78.578813725000714, "vfov_deg": 57.220919331930432 }, "geometry": { "type": "Point", "coordinates": [ 114.895421, 22.7185169 ] } },
{ "type": "Feature", "properties": { "filename": "DJI_0844.JPG", "datetime": "2022-10-13 12:12:19", "device": "drone", "model": "DJI FC3411", "lat": 22.74578, "lon": 114.9394677, "altitude": 11.1, "heading": -11.7, "gimbal_pitch": -16.3, "flight_pitch": 2.1, "pitch_actual": -16.3, "focal_mm": 8.38, "focal_35mm": 22.0, "sensor_width_mm": 13.712727272727273, "sensor_height_mm": 9.1418181818181825, "hfov_deg": 78.578813725000714, "vfov_deg": 57.220919331930432 }, "geometry": { "type": "Point", "coordinates": [ 114.9394677, 22.74578 ] } },
{ "type": "Feature", "properties": { "filename": "DJI_0845.JPG", "datetime": "2022-10-13 12:12:24", "device": "drone", "model": "DJI FC3411", "lat": 22.7457794, "lon": 114.9394674, "altitude": 10.9, "heading": 79.4, "gimbal_pitch": -16.3, "flight_pitch": 7.9, "pitch_actual": -16.3, "focal_mm": 8.38, "focal_35mm": 22.0, "sensor_width_mm": 13.712727272727273, "sensor_height_mm": 9.1418181818181825, "hfov_deg": 78.578813725000714, "vfov_deg": 57.220919331930432 }, "geometry": { "type": "Point", "coordinates": [ 114.9394674, 22.7457794 ] } },
{ "type": "Feature", "properties": { "filename": "DJI_0846.JPG", "datetime": "2022-10-13 12:12:36", "device": "drone", "model": "DJI FC3411", "lat": 22.7463163, "lon": 114.9387463, "altitude": 24.4, "heading": -83.4, "gimbal_pitch": -16.3, "flight_pitch": 22.2, "pitch_actual": -16.3, "focal_mm": 8.38, "focal_35mm": 22.0, "sensor_width_mm": 13.712727272727273, "sensor_height_mm": 9.1418181818181825, "hfov_deg": 78.578813725000714, "vfov_deg": 57.220919331930432 }, "geometry": { "type": "Point", "coordinates": [ 114.9387463, 22.7463163 ] } },
{ "type": "Feature", "properties": { "filename": "DJI_0847.JPG", "datetime": "2022-10-13 12:13:15", "device": "drone", "model": "DJI FC3411", "lat": 22.7472632, "lon": 114.9376608, "altitude": 24.6, "heading": 115.4, "gimbal_pitch": -16.1, "flight_pitch": 3.2, "pitch_actual": -16.1, "focal_mm": 8.38, "focal_35mm": 22.0, "sensor_width_mm": 13.712727272727273, "sensor_height_mm": 9.1418181818181825, "hfov_deg": 78.578813725000714, "vfov_deg": 57.220919331930432 }, "geometry": { "type": "Point", "coordinates": [ 114.9376608, 22.7472632 ] } }
]
}
