{
"type": "FeatureCollection",
"name": "岸段",
"crs": { "type": "name", "properties": { "name": "urn:ogc:def:crs:OGC:1.3:CRS84" } },
"features": [
{ "type": "Feature", "properties": { "岸段号": 456, "所在地": "湛江市雷州市", "名称": "乌石港-那胆港严格保护岸线", "管控类型": "严格保护岸线", "cd": 16.0259, "标注": "456-乌石港盐庭角严格保护岸段", "比例尺": "", "名录名": "乌石港盐庭角严格保护岸段", "F_": "-" }, "geometry": { "type": "LineString", "coordinates": [ [ 109.8301961, 20.55522996 ], [ 109.8305708, 20.55579201 ], [ 109.830892, 20.55870504 ], [ 109.831153, 20.56038804 ], [ 109.8311209, 20.56116699 ], [ 109.831037, 20.56133097 ], [ 109.8310709, 20.56155498 ], [ 109.8312509, 20.56191696 ], [ 109.8310759, 20.56197096 ], [ 109.8311371, 20.56249197 ], [ 109.8313999, 20.562642 ], [ 109.8313981, 20.562948 ], [ 109.83128, 20.56309002 ], [ 109.8312271, 20.56418199 ], [ 109.8312851, 20.56455 ], [ 109.8315011, 20.56479498 ], [ 109.831293, 20.56478904 ], [ 109.831217, 20.56540401 ], [ 109.8315119, 20.56544901 ], [ 109.8314849, 20.56566897 ], [ 109.8312502, 20.56569102 ], [ 109.8309881, 20.56660002 ], [ 109.831203, 20.56662297 ], [ 109.8310478, 20.56699701 ], [ 109.8309982, 20.56751001 ], [ 109.8307238, 20.56828203 ], [ 109.8308099, 20.56846698 ], [ 109.830703, 20.56876398 ], [ 109.83073, 20.56896099 ], [ 109.830528, 20.56944996 ], [ 109.83056, 20.56963104 ], [ 109.830352, 20.57021703 ], [ 109.830244, 20.57071599 ], [ 109.830262, 20.57096097 ], [ 109.8300982, 20.57137002 ], [ 109.8300269, 20.57174703 ], [ 109.8295538, 20.57322798 ], [ 109.829448, 20.57380902 ], [ 109.8291341, 20.57426802 ], [ 109.8291161, 20.57445297 ], [ 109.8290081, 20.57473098 ], [ 109.8291931, 20.57482404 ], [ 109.8290009, 20.57483304 ], [ 109.8288101, 20.57541903 ], [ 109.8288641, 20.57560803 ], [ 109.8284879, 20.57615901 ], [ 109.828382, 20.57667804 ], [ 109.8281311, 20.57735799 ], [ 109.8282589, 20.57755302 ], [ 109.8279922, 20.57749704 ], [ 109.8278032, 20.577861 ], [ 109.828197, 20.57801301 ], [ 109.828039, 20.57812398 ], [ 109.8277909, 20.57803803 ], [ 109.8276019, 20.578545 ], [ 109.8273179, 20.57909904 ], [ 109.8275468, 20.57917401 ], [ 109.8273449, 20.57925996 ], [ 109.8273341, 20.57945904 ], [ 109.8271109, 20.57949801 ], [ 109.826501, 20.58101298 ], [ 109.826248, 20.58138603 ], [ 109.826024, 20.58184998 ], [ 109.8259121, 20.58199803 ], [ 109.8257332, 20.582046 ], [ 109.825627, 20.582208 ], [ 109.8255139, 20.58247503 ], [ 109.8256972, 20.58259896 ], [ 109.8256259, 20.58297399 ], [ 109.825321, 20.58335496 ], [ 109.825195, 20.58360597 ], [ 109.8250121, 20.58417999 ], [ 109.8247298, 20.58459696 ], [ 109.8245228, 20.58501096 ], [ 109.824165, 20.58614397 ], [ 109.8237971, 20.58686802 ], [ 109.8220792, 20.58983199 ], [ 109.8219089, 20.59000101 ], [ 109.8216202, 20.590542 ], [ 109.821492, 20.59068402 ], [ 109.821136, 20.59128702 ], [ 109.8208451, 20.59179903 ], [ 109.820714, 20.59216803 ], [ 109.820371, 20.59273296 ], [ 109.820326, 20.59294302 ], [ 109.8199418, 20.59341201 ], [ 109.8191761, 20.59485597 ], [ 109.8187261, 20.59543404 ], [ 109.8181159, 20.596617 ], [ 109.8179741, 20.59746597 ], [ 109.8179921, 20.59774902 ], [ 109.817874, 20.598435 ], [ 109.818193, 20.59874199 ], [ 109.8183881, 20.59880904 ], [ 109.8185771, 20.59866297 ], [ 109.818702, 20.59841799 ], [ 109.818823, 20.59775802 ], [ 109.818949, 20.59732602 ], [ 109.819157, 20.59686702 ], [ 109.8191722, 20.59668099 ], [ 109.819391, 20.59661997 ], [ 109.8195761, 20.59671798 ], [ 109.8190951, 20.59721199 ], [ 109.819021, 20.59742601 ], [ 109.8190051, 20.59767504 ], [ 109.818895, 20.59787196 ], [ 109.8188489, 20.59834401 ], [ 109.8186991, 20.59877304 ], [ 109.818684, 20.59896798 ], [ 109.818522, 20.59910901 ], [ 109.8184529, 20.59928802 ], [ 109.818644, 20.59965396 ], [ 109.818931, 20.60000199 ], [ 109.819224, 20.60021997 ], [ 109.8197399, 20.60073 ], [ 109.820268, 20.60103204 ], [ 109.820448, 20.60100099 ], [ 109.8204221, 20.60117901 ], [ 109.8213041, 20.60176401 ], [ 109.8216832, 20.60190504 ], [ 109.821528, 20.60204904 ], [ 109.8203602, 20.60126496 ], [ 109.819913, 20.60103897 ], [ 109.8197341, 20.60118801 ], [ 109.8194591, 20.60208297 ], [ 109.8194339, 20.60188803 ], [ 109.8194749, 20.60147304 ], [ 109.8196499, 20.60086104 ], [ 109.818729, 20.60017902 ], [ 109.818229, 20.59969401 ], [ 109.817239, 20.59984701 ], [ 109.8162281, 20.59984098 ], [ 109.815687, 20.60021799 ], [ 109.8132862, 20.60371197 ], [ 109.8131101, 20.60385399 ], [ 109.8129179, 20.60422704 ], [ 109.8128981, 20.60447202 ], [ 109.8127372, 20.60465202 ], [ 109.8125759, 20.60504901 ], [ 109.8123919, 20.60517996 ], [ 109.8114721, 20.606454 ], [ 109.810503, 20.60762499 ], [ 109.8091429, 20.60954703 ], [ 109.8083689, 20.61045702 ], [ 109.8079549, 20.61117198 ], [ 109.8064069, 20.61311796 ], [ 109.804865, 20.61528696 ], [ 109.804698, 20.61575802 ], [ 109.804594, 20.61591804 ], [ 109.8043081, 20.61597699 ], [ 109.804311, 20.61619596 ], [ 109.80391, 20.61664497 ], [ 109.80383, 20.61684999 ], [ 109.8034279, 20.61745902 ], [ 109.8028598, 20.61806598 ], [ 109.8020729, 20.61914301 ], [ 109.801714, 20.61951201 ], [ 109.8013252, 20.62005804 ], [ 109.8012578, 20.62025901 ], [ 109.8004601, 20.62116297 ], [ 109.7994578, 20.62240398 ], [ 109.7987119, 20.62312803 ], [ 109.7979329, 20.62429002 ], [ 109.7973371, 20.62495602 ], [ 109.7972291, 20.62522899 ], [ 109.7970451, 20.62527903 ], [ 109.7967809, 20.62557198 ], [ 109.7965688, 20.62557396 ], [ 109.7959781, 20.62634904 ], [ 109.7954809, 20.62740096 ], [ 109.7953571, 20.62787103 ], [ 109.7954111, 20.628063 ], [ 109.7956019, 20.62825596 ], [ 109.7960648, 20.62856997 ], [ 109.7963032, 20.62862397 ], [ 109.7964209, 20.62847601 ], [ 109.796607, 20.62882296 ], [ 109.7968241, 20.62892196 ], [ 109.7972291, 20.62885302 ], [ 109.79762, 20.62872 ], [ 109.79779, 20.62861101 ], [ 109.797908, 20.62845099 ], [ 109.7980988, 20.628036 ], [ 109.7985449, 20.62796904 ], [ 109.7987429, 20.62805796 ], [ 109.7989549, 20.62809396 ], [ 109.7995651, 20.62809801 ], [ 109.799402, 20.628198 ], [ 109.79869, 20.62832796 ], [ 109.798375, 20.62834398 ], [ 109.7980841, 20.62852902 ], [ 109.797881, 20.62873197 ], [ 109.7978281, 20.62899603 ], [ 109.7966081, 20.62912302 ], [ 109.7963618, 20.62906596 ], [ 109.7960159, 20.62888596 ], [ 109.7956631, 20.62883403 ], [ 109.795252, 20.62900899 ], [ 109.7951371, 20.62921599 ], [ 109.7949229, 20.62927296 ], [ 109.7945399, 20.62916397 ], [ 109.7936269, 20.62972098 ], [ 109.793165, 20.62993698 ], [ 109.793264, 20.63018097 ], [ 109.792804, 20.630529 ], [ 109.791824, 20.63140497 ], [ 109.791783, 20.631672 ], [ 109.7903509, 20.63250504 ], [ 109.789096, 20.63296404 ], [ 109.7878072, 20.63378403 ], [ 109.787675, 20.633562 ], [ 109.785429, 20.634966 ], [ 109.7850449, 20.635074 ], [ 109.7834389, 20.635722 ], [ 109.783359, 20.63589597 ], [ 109.7828032, 20.63626398 ], [ 109.7826379, 20.636361 ], [ 109.782378, 20.63635803 ], [ 109.781928, 20.63664801 ], [ 109.7819539, 20.63683602 ], [ 109.781829, 20.63699397 ], [ 109.780942, 20.63734596 ], [ 109.7794688, 20.63774898 ], [ 109.778773, 20.63811402 ], [ 109.7785861, 20.63810799 ], [ 109.778346, 20.63817702 ], [ 109.778162, 20.63825397 ], [ 109.7782081, 20.63843001 ], [ 109.7779928, 20.63848896 ], [ 109.777802, 20.63849796 ], [ 109.7776469, 20.63839797 ], [ 109.777392, 20.63836296 ], [ 109.7771609, 20.63838996 ], [ 109.7758321, 20.63878101 ], [ 109.7758249, 20.63898702 ], [ 109.775254, 20.63907801 ], [ 109.7752241, 20.63873304 ], [ 109.7750261, 20.63867697 ], [ 109.774147, 20.63864097 ], [ 109.774058, 20.63899404 ] ] } },
{ "type": "Feature", "properties": { "岸段号": 458, "所在地": "湛江市雷州市", "名称": "海康港-企水港严格保护岸线", "管控类型": "严格保护岸线", "cd": 9.43906, "标注": "458-海康港—企水港严格保护岸段", "比例尺": "", "名录名": "海康港—企水港严格保护岸段", "F_": "-" }, "geometry": { "type": "LineString", "coordinates": [ [ 109.7865731, 20.69673003 ], [ 109.7863009, 20.69676297 ], [ 109.785798, 20.69701101 ], [ 109.7853901, 20.69708103 ], [ 109.7849599, 20.69721198 ], [ 109.783894, 20.69788302 ], [ 109.7832949, 20.69813097 ], [ 109.782814, 20.69861697 ], [ 109.7822092, 20.69905302 ], [ 109.7821321, 20.69925696 ], [ 109.781514, 20.69951598 ], [ 109.781366, 20.69970102 ], [ 109.781078, 20.69970102 ], [ 109.7804959, 20.70031104 ], [ 109.780321, 20.70067401 ], [ 109.7799188, 20.70108099 ], [ 109.7798198, 20.70152199 ], [ 109.7795599, 20.70159399 ], [ 109.77943, 20.70173898 ], [ 109.7793878, 20.70193896 ], [ 109.7791679, 20.70208503 ], [ 109.7788691, 20.70239796 ], [ 109.7786621, 20.70249201 ], [ 109.7781451, 20.70308799 ], [ 109.7774348, 20.70371304 ], [ 109.776541, 20.70441999 ], [ 109.776222, 20.70448596 ], [ 109.7759779, 20.70415899 ], [ 109.7756572, 20.70411102 ], [ 109.775353, 20.70422397 ], [ 109.774809, 20.70459297 ], [ 109.7744569, 20.70489798 ], [ 109.7742532, 20.70517797 ], [ 109.7740282, 20.70524304 ], [ 109.7737852, 20.70550602 ], [ 109.773526, 20.70562203 ], [ 109.7732002, 20.705967 ], [ 109.772946, 20.70614304 ], [ 109.7716658, 20.70728604 ], [ 109.7711561, 20.70793098 ], [ 109.7692949, 20.70994698 ], [ 109.76837, 20.71117602 ], [ 109.7682289, 20.71129203 ], [ 109.7680489, 20.71162701 ], [ 109.767749, 20.71192698 ], [ 109.767537, 20.71197297 ], [ 109.7673329, 20.71218204 ], [ 109.7673142, 20.71251999 ], [ 109.7671651, 20.71290501 ], [ 109.7669131, 20.71323198 ], [ 109.766547, 20.71355103 ], [ 109.766407, 20.71387701 ], [ 109.7661791, 20.714112 ], [ 109.765939, 20.71427301 ], [ 109.7656441, 20.71471797 ], [ 109.7655761, 20.71491903 ], [ 109.7657741, 20.71501704 ], [ 109.7658799, 20.71518201 ], [ 109.7653799, 20.71601802 ], [ 109.7652931, 20.71619802 ], [ 109.7652578, 20.716434 ], [ 109.7650231, 20.71638 ], [ 109.7648528, 20.71674297 ], [ 109.7648039, 20.71694403 ], [ 109.764234, 20.71674603 ], [ 109.764126, 20.71699398 ], [ 109.7647751, 20.71731402 ], [ 109.7646469, 20.71767798 ], [ 109.7648521, 20.71780398 ], [ 109.7646908, 20.71811097 ], [ 109.7640641, 20.71771902 ], [ 109.7637592, 20.71803996 ], [ 109.7633272, 20.71863198 ], [ 109.7627198, 20.71981098 ], [ 109.7627062, 20.72007603 ], [ 109.762011, 20.72119698 ], [ 109.7619109, 20.72159001 ], [ 109.761588, 20.722293 ], [ 109.7600872, 20.72466801 ], [ 109.759824, 20.72522304 ], [ 109.7593009, 20.72605104 ], [ 109.7588498, 20.72705202 ], [ 109.758569, 20.72680002 ], [ 109.7583548, 20.726955 ], [ 109.75743, 20.72808603 ], [ 109.7571481, 20.72868201 ], [ 109.756841, 20.72850804 ], [ 109.756471, 20.72902203 ], [ 109.7561351, 20.72968398 ], [ 109.756327, 20.72988801 ], [ 109.7560501, 20.73030498 ], [ 109.755742, 20.73049704 ], [ 109.7550331, 20.731257 ], [ 109.7544391, 20.73200598 ], [ 109.753803, 20.73267801 ], [ 109.7537692, 20.73286404 ], [ 109.7532652, 20.73338496 ], [ 109.7528821, 20.73323799 ], [ 109.752575, 20.73340899 ], [ 109.7518871, 20.73416301 ], [ 109.7508082, 20.73516201 ], [ 109.750153, 20.73585303 ], [ 109.749812, 20.73644298 ], [ 109.7491928, 20.73722598 ], [ 109.7491669, 20.73753 ], [ 109.7488778, 20.73805101 ], [ 109.7483141, 20.73859596 ], [ 109.748137, 20.73905298 ], [ 109.7483159, 20.73926799 ], [ 109.748344, 20.73945996 ], [ 109.748093, 20.739501 ], [ 109.7476042, 20.74004703 ], [ 109.7470508, 20.74092102 ], [ 109.7468489, 20.74111101 ], [ 109.7466059, 20.74184604 ], [ 109.746621, 20.74204701 ], [ 109.746463, 20.74250403 ], [ 109.7464882, 20.74269897 ], [ 109.7466818, 20.74270401 ], [ 109.746887, 20.74261797 ], [ 109.7469022, 20.74281003 ], [ 109.7470642, 20.74326003 ], [ 109.7473388, 20.74336299 ], [ 109.7475311, 20.74399596 ], [ 109.747291, 20.74404096 ], [ 109.74712, 20.74412196 ], [ 109.747255, 20.74452201 ], [ 109.7477201, 20.74466799 ], [ 109.7481589, 20.74542399 ], [ 109.7487281, 20.74658301 ], [ 109.7489581, 20.746818 ], [ 109.7490499, 20.74726296 ], [ 109.7492429, 20.74774599 ], [ 109.7494549, 20.74774797 ], [ 109.7496518, 20.74820103 ], [ 109.7502901, 20.74929903 ], [ 109.751796, 20.75083704 ], [ 109.752633, 20.75150997 ], [ 109.753285, 20.75216103 ], [ 109.7554529, 20.75576598 ] ] } },
{ "type": "Feature", "properties": { "岸段号": 466, "所在地": "湛江市遂溪县", "名称": "江洪-乐民严格保护岸线", "管控类型": "严格保护岸线", "cd": 22.903, "标注": "466-江洪港—乐民港严格保护岸段", "比例尺": "", "名录名": "江洪港—乐民港严格保护岸段", "F_": "-" }, "geometry": { "type": "LineString", "coordinates": [ [ 109.705757, 21.03400296 ], [ 109.70581, 21.03444396 ], [ 109.7063669, 21.03602301 ], [ 109.7067179, 21.03834501 ], [ 109.706756, 21.03969303 ], [ 109.7065958, 21.04268598 ], [ 109.7066992, 21.04320303 ], [ 109.706837, 21.04366203 ], [ 109.707282, 21.04437204 ], [ 109.7076128, 21.04512201 ], [ 109.7077799, 21.04574004 ], [ 109.707939, 21.04638804 ], [ 109.7078951, 21.04820298 ], [ 109.7080459, 21.04919397 ], [ 109.7083181, 21.04985997 ], [ 109.7085881, 21.05029602 ], [ 109.7087609, 21.05088201 ], [ 109.7088379, 21.051567 ], [ 109.7091601, 21.05260002 ], [ 109.709438, 21.05394804 ], [ 109.709946, 21.05547597 ], [ 109.7100929, 21.056193 ], [ 109.7104741, 21.05744301 ], [ 109.710653, 21.05824302 ], [ 109.7106649, 21.05869599 ], [ 109.710572, 21.06026298 ], [ 109.7105828, 21.06211797 ], [ 109.710513, 21.06276201 ], [ 109.710283, 21.06272502 ], [ 109.7100151, 21.06285804 ], [ 109.7099399, 21.06309897 ], [ 109.7099348, 21.064014 ], [ 109.7097739, 21.06416097 ], [ 109.709726, 21.06507996 ], [ 109.7101102, 21.065202 ], [ 109.7098769, 21.06565002 ], [ 109.709469, 21.06593397 ], [ 109.7092372, 21.066354 ], [ 109.708763, 21.06751797 ], [ 109.7087821, 21.067767 ], [ 109.7089319, 21.06790002 ], [ 109.7091439, 21.06793602 ], [ 109.7090741, 21.06813699 ], [ 109.708461, 21.06878796 ], [ 109.708214, 21.06949797 ], [ 109.7080132, 21.06940401 ], [ 109.7077579, 21.06968904 ], [ 109.7076899, 21.06993303 ], [ 109.707412, 21.07045701 ], [ 109.7070869, 21.07142001 ], [ 109.7068522, 21.07183401 ], [ 109.7067262, 21.07222596 ], [ 109.7065091, 21.07260801 ], [ 109.7062949, 21.07292004 ], [ 109.706112, 21.07307097 ], [ 109.7050939, 21.07467603 ], [ 109.704857, 21.07521504 ], [ 109.7044139, 21.07573704 ], [ 109.7041882, 21.07645002 ], [ 109.7037022, 21.07688103 ], [ 109.703187, 21.07753902 ], [ 109.7024821, 21.07863297 ], [ 109.702062, 21.07958004 ], [ 109.7018431, 21.07953603 ], [ 109.7014259, 21.08023704 ], [ 109.7011199, 21.080655 ], [ 109.700428, 21.08202498 ], [ 109.6990369, 21.084183 ], [ 109.6986409, 21.08486601 ], [ 109.6973669, 21.08680596 ], [ 109.6968931, 21.08729304 ], [ 109.696792, 21.08805102 ], [ 109.696239, 21.08896704 ], [ 109.695695, 21.08967399 ], [ 109.695555, 21.08953701 ], [ 109.6953149, 21.08942802 ], [ 109.6947209, 21.09046203 ], [ 109.6939541, 21.09134097 ], [ 109.6935682, 21.09164697 ], [ 109.6926941, 21.09260304 ], [ 109.6920889, 21.093363 ], [ 109.6916659, 21.094065 ], [ 109.691671, 21.09429297 ], [ 109.6919978, 21.09448404 ], [ 109.6915612, 21.09525498 ], [ 109.691572, 21.09558303 ], [ 109.691329, 21.09562596 ], [ 109.6911619, 21.09553596 ], [ 109.6909402, 21.09561597 ], [ 109.6905949, 21.09604698 ], [ 109.689165, 21.09709701 ], [ 109.688373, 21.09791304 ], [ 109.6867732, 21.09987603 ], [ 109.6865129, 21.10012299 ], [ 109.6854818, 21.10132701 ], [ 109.684895, 21.10226598 ], [ 109.6846942, 21.102453 ], [ 109.6846769, 21.10285602 ], [ 109.6838759, 21.10365999 ], [ 109.683292, 21.10443804 ], [ 109.6828132, 21.10523103 ], [ 109.682208, 21.10592196 ], [ 109.6818098, 21.10648896 ], [ 109.6816, 21.10684797 ], [ 109.681655, 21.10705596 ], [ 109.6814891, 21.10716396 ], [ 109.681056, 21.10775103 ], [ 109.679944, 21.11007798 ], [ 109.6797161, 21.11084802 ], [ 109.679683, 21.11124204 ], [ 109.6790749, 21.11225598 ], [ 109.6786609, 21.11312196 ], [ 109.678491, 21.11364603 ], [ 109.6779611, 21.11393601 ], [ 109.6777159, 21.11419404 ], [ 109.677172, 21.11510898 ], [ 109.676642, 21.11616801 ], [ 109.675638, 21.11756004 ], [ 109.67531, 21.11871096 ], [ 109.6754249, 21.11996304 ], [ 109.6767299, 21.12484599 ], [ 109.6768829, 21.12504201 ], [ 109.6770899, 21.12545601 ], [ 109.6774711, 21.126798 ], [ 109.6777879, 21.12763203 ], [ 109.6782829, 21.12855201 ], [ 109.6792402, 21.13004403 ], [ 109.679945, 21.13104204 ], [ 109.680953, 21.13278102 ], [ 109.6819531, 21.13463799 ], [ 109.682217, 21.13485498 ], [ 109.6825972, 21.13452801 ], [ 109.682735, 21.13418997 ], [ 109.682937, 21.13391601 ], [ 109.6836311, 21.13486398 ], [ 109.6834432, 21.13527204 ], [ 109.6836509, 21.13567803 ], [ 109.683355, 21.13600401 ], [ 109.6834072, 21.136518 ], [ 109.6843838, 21.13781796 ], [ 109.6859059, 21.139542 ], [ 109.6873222, 21.14105004 ], [ 109.688323, 21.14186697 ], [ 109.690668, 21.14414199 ], [ 109.69159, 21.145608 ], [ 109.692032, 21.14751303 ], [ 109.691847, 21.14763696 ], [ 109.6920029, 21.14882703 ], [ 109.6928111, 21.15026298 ], [ 109.692904, 21.15068103 ], [ 109.6938799, 21.15196596 ], [ 109.6966148, 21.15477801 ], [ 109.6986179, 21.15664803 ], [ 109.6999711, 21.15804096 ], [ 109.7012369, 21.15924804 ], [ 109.7021081, 21.16046502 ], [ 109.703291, 21.16185804 ], [ 109.7049701, 21.16365201 ], [ 109.7090179, 21.16727298 ], [ 109.7108921, 21.16880397 ], [ 109.7157161, 21.17294001 ], [ 109.718933, 21.17530701 ], [ 109.7214502, 21.17730897 ], [ 109.723559, 21.179331 ], [ 109.724711, 21.18068703 ], [ 109.7255891, 21.18188601 ], [ 109.725304, 21.18203397 ], [ 109.725327, 21.18221901 ], [ 109.7260931, 21.18336102 ], [ 109.7262601, 21.18346398 ], [ 109.7267969, 21.18438702 ], [ 109.727113, 21.18467097 ], [ 109.7273689, 21.18474702 ], [ 109.7276209, 21.18553902 ], [ 109.729269, 21.18733398 ], [ 109.730273, 21.18823596 ], [ 109.7310899, 21.18887298 ], [ 109.7313581, 21.18894201 ], [ 109.7331682, 21.19035699 ], [ 109.735403, 21.192291 ], [ 109.7367649, 21.19305402 ], [ 109.7378899, 21.19355397 ], [ 109.7403721, 21.19430898 ], [ 109.7411861, 21.19448304 ], [ 109.7418398, 21.19445901 ], [ 109.7423561, 21.19439799 ], [ 109.7431189, 21.19421799 ], [ 109.7439941, 21.19379796 ], [ 109.7445449, 21.19339098 ], [ 109.7446568, 21.19292199 ] ] } },
{ "type": "Feature", "properties": { "岸段号": 124, "所在地": "汕尾市海丰县、惠州市惠东县", "名称": "了哥咀-东头东侧严格保护岸线", "管控类型": "严格保护岸线", "cd": 2.26528, "标注": "124-南方澳至烟墩湾严格保护岸段", "比例尺": "", "名录名": "南方澳至烟墩湾严格保护岸段", "F_": "-" }, "geometry": { "type": "LineString", "coordinates": [ [ 115.0232886, 22.74537771 ], [ 115.0221769, 22.74446097 ], [ 115.0221481, 22.74425703 ], [ 115.0214422, 22.74346296 ], [ 115.0198999, 22.74197904 ], [ 115.018398, 22.74019704 ], [ 115.017165, 22.738167 ], [ 115.0162459, 22.73522904 ], [ 115.0157329, 22.73319504 ], [ 115.015581, 22.73217498 ], [ 115.0153949, 22.72995801 ], [ 115.0153319, 22.72977603 ], [ 115.0151029, 22.72965399 ], [ 115.0147829, 22.72966002 ], [ 115.0147372, 22.72940397 ], [ 115.0149668, 22.72923198 ], [ 115.0151321, 22.72904199 ], [ 115.0153139, 22.72861296 ], [ 115.016054, 22.72828401 ] ] } },
{ "type": "Feature", "properties": { "岸段号": 124, "所在地": "汕尾市海丰县、惠州市惠东县", "名称": "了哥咀-东头东侧严格保护岸线", "管控类型": "严格保护岸线", "cd": 1.09449, "标注": "124-南方澳至烟墩湾严格保护岸段", "比例尺": "", "名录名": "南方澳至烟墩湾严格保护岸段", "F_": "-" }, "geometry": { "type": "LineString", "coordinates": [ [ 115.0047922, 22.70522898 ], [ 115.004308, 22.70510604 ], [ 115.003408, 22.70476098 ], [ 115.001523, 22.70389698 ], [ 115.000637, 22.70328201 ], [ 114.9998569, 22.70286297 ], [ 114.9989411, 22.70245401 ], [ 114.9983168, 22.70197296 ], [ 114.9976789, 22.70163303 ], [ 114.9968491, 22.70101797 ], [ 114.9964301, 22.70055402 ], [ 114.9959909, 22.69994796 ] ] } },
{ "type": "Feature", "properties": { "岸段号": 1, "所在地": "潮州市饶平县", "名称": "大埕湾严格保护岸线", "管控类型": "严格保护岸线", "cd": 7.67583, "标注": "1-大埕湾严格保护岸段", "比例尺": "25000", "名录名": "大埕湾严格保护岸段", "F_": "-" }, "geometry": { "type": "LineString", "coordinates": [ [ 117.190067, 23.61956202 ], [ 117.188226, 23.61917601 ], [ 117.186125, 23.61838698 ], [ 117.1847221, 23.61818196 ], [ 117.1842322, 23.61859497 ], [ 117.1836022, 23.61852198 ], [ 117.1823198, 23.61803301 ], [ 117.1813522, 23.61777696 ], [ 117.1809821, 23.61784104 ], [ 117.1803341, 23.61807198 ], [ 117.1798852, 23.618385 ], [ 117.179626, 23.61866202 ], [ 117.179446, 23.61856104 ], [ 117.180104, 23.61789702 ], [ 117.180113, 23.61768102 ], [ 117.1799831, 23.61748401 ], [ 117.179734, 23.61731796 ], [ 117.179743, 23.61700602 ], [ 117.1795601, 23.61662496 ], [ 117.1790921, 23.61667302 ], [ 117.1785848, 23.61660201 ], [ 117.1765969, 23.61590604 ], [ 117.1762981, 23.61602601 ], [ 117.1753499, 23.61577797 ], [ 117.172003, 23.61425499 ], [ 117.1713539, 23.61382299 ], [ 117.170352, 23.61306303 ], [ 117.1697551, 23.61274002 ], [ 117.167009, 23.61163896 ], [ 117.1642522, 23.61024396 ], [ 117.1624349, 23.60965698 ], [ 117.1621051, 23.60968497 ], [ 117.161906, 23.60991501 ], [ 117.161897, 23.61017304 ], [ 117.1616641, 23.61030804 ], [ 117.1615072, 23.61021003 ], [ 117.161257, 23.60928096 ], [ 117.1607731, 23.60911896 ], [ 117.1605449, 23.608836 ], [ 117.1601759, 23.60825199 ], [ 117.1591279, 23.60736099 ], [ 117.1584299, 23.606883 ], [ 117.1578899, 23.60675502 ], [ 117.15782, 23.60651598 ], [ 117.157131, 23.60603799 ], [ 117.1565521, 23.60580903 ], [ 117.1561421, 23.60537703 ], [ 117.1553231, 23.60492703 ], [ 117.1547932, 23.60456901 ], [ 117.1535641, 23.60363202 ], [ 117.153135, 23.60344797 ], [ 117.1526951, 23.60315403 ], [ 117.1492589, 23.60049102 ], [ 117.1482109, 23.59981098 ], [ 117.1477609, 23.59960902 ], [ 117.147532, 23.59965501 ], [ 117.1474121, 23.59992204 ], [ 117.1475539, 23.60030904 ], [ 117.1479449, 23.60073204 ], [ 117.1475921, 23.60091699 ], [ 117.14697, 23.60099403 ], [ 117.1467529, 23.60079396 ], [ 117.146673, 23.60034 ], [ 117.1461049, 23.59976697 ], [ 117.1458439, 23.59937196 ], [ 117.1461431, 23.59890198 ], [ 117.1463422, 23.59816596 ], [ 117.1458518, 23.597559 ], [ 117.145193, 23.59700802 ], [ 117.1441051, 23.59587996 ], [ 117.1434139, 23.59530801 ], [ 117.141876, 23.59391202 ], [ 117.1408871, 23.59288197 ], [ 117.1388992, 23.590971 ], [ 117.1355213, 23.58744111 ] ] } },
{ "type": "Feature", "properties": { "岸段号": 58, "所在地": "揭阳市惠来县", "名称": "前瞻镇南严格保护岸线", "管控类型": "严格保护岸线", "cd": 11.7254, "标注": "58-港寮湾严格保护岸段", "比例尺": "", "名录名": "港寮湾严格保护岸段", "F_": "-" }, "geometry": { "type": "LineString", "coordinates": [ [ 116.48345, 22.94013402 ], [ 116.4835429, 22.94037999 ], [ 116.483517, 22.94057304 ], [ 116.4831671, 22.94163999 ], [ 116.4829799, 22.941639 ], [ 116.4818678, 22.94241804 ], [ 116.4815341, 22.94267598 ], [ 116.4815381, 22.94288802 ], [ 116.4813361, 22.94295903 ], [ 116.481001, 22.94296101 ], [ 116.4804509, 22.943178 ], [ 116.4790598, 22.94381898 ], [ 116.4789371, 22.94400204 ], [ 116.4787441, 22.943961 ], [ 116.4783611, 22.94430003 ], [ 116.478167, 22.94424504 ], [ 116.4778852, 22.94453799 ], [ 116.4774769, 22.94455203 ], [ 116.4772721, 22.94467704 ], [ 116.47687, 22.94478198 ], [ 116.4762788, 22.94513397 ], [ 116.4759851, 22.94515197 ], [ 116.4758159, 22.9455 ], [ 116.475611, 22.94557398 ], [ 116.475349, 22.94588898 ], [ 116.4750509, 22.94613099 ], [ 116.474692, 22.94668602 ], [ 116.474359, 22.94702298 ], [ 116.4736411, 22.94707698 ], [ 116.4731951, 22.94727597 ], [ 116.4725669, 22.94727201 ], [ 116.4719059, 22.94713602 ], [ 116.4707989, 22.94724402 ], [ 116.4703601, 22.94720703 ], [ 116.468469, 22.94720397 ], [ 116.467862, 22.94703702 ], [ 116.466772, 22.94688096 ], [ 116.4661448, 22.94668296 ], [ 116.4652718, 22.94662401 ], [ 116.4646739, 22.94666001 ], [ 116.463892, 22.94696898 ], [ 116.4636569, 22.947237 ], [ 116.4632749, 22.94743797 ], [ 116.46252, 22.947669 ], [ 116.462385, 22.94779302 ], [ 116.461696, 22.94821899 ], [ 116.461373, 22.94833698 ], [ 116.460355, 22.94839296 ], [ 116.4603769, 22.948119 ], [ 116.460135, 22.94791902 ], [ 116.459914, 22.947939 ], [ 116.4596479, 22.94802603 ], [ 116.459523, 22.94833203 ], [ 116.459649, 22.94851401 ], [ 116.4596609, 22.94883702 ], [ 116.459483, 22.94898804 ], [ 116.4590179, 22.94919 ], [ 116.4589009, 22.94939196 ], [ 116.459014, 22.94956701 ], [ 116.4589949, 22.94976204 ], [ 116.4587591, 22.94998398 ], [ 116.458547, 22.95007497 ], [ 116.45753, 22.95013599 ], [ 116.4570721, 22.95037098 ], [ 116.4566171, 22.95009297 ], [ 116.4568079, 22.94971596 ], [ 116.456769, 22.94952597 ], [ 116.456558, 22.94938602 ], [ 116.4549841, 22.94919702 ], [ 116.453133, 22.94859897 ], [ 116.453043, 22.94832798 ], [ 116.45204, 22.947984 ], [ 116.4513881, 22.94795997 ], [ 116.4506558, 22.94762301 ], [ 116.450037, 22.94726598 ], [ 116.4472621, 22.94602596 ], [ 116.4467722, 22.94574201 ], [ 116.446014, 22.94540901 ], [ 116.4458419, 22.94524701 ], [ 116.4455579, 22.94521596 ], [ 116.445357, 22.94499699 ], [ 116.4451381, 22.94487801 ], [ 116.4451169, 22.94454699 ], [ 116.4443519, 22.94415603 ], [ 116.4442871, 22.94397297 ], [ 116.4441359, 22.94417898 ], [ 116.443953, 22.94419896 ], [ 116.4436751, 22.94411301 ], [ 116.443548, 22.94387901 ], [ 116.4433072, 22.94365401 ], [ 116.4426818, 22.94342802 ], [ 116.44241, 22.94320698 ], [ 116.44223, 22.94326296 ], [ 116.4420331, 22.94316396 ], [ 116.4416821, 22.94308602 ], [ 116.4414449, 22.94288802 ], [ 116.440925, 22.94277102 ], [ 116.4405262, 22.94239104 ], [ 116.4400672, 22.94224299 ], [ 116.4399008, 22.94203599 ], [ 116.4394379, 22.94186904 ], [ 116.438782, 22.94149797 ], [ 116.438441, 22.94152596 ], [ 116.437612, 22.941711 ], [ 116.4371839, 22.94172099 ], [ 116.4363379, 22.94163396 ], [ 116.4359819, 22.94150796 ], [ 116.435547, 22.94153001 ], [ 116.434044, 22.94120304 ], [ 116.4334259, 22.941117 ], [ 116.4330832, 22.94099703 ], [ 116.432681, 22.94096004 ], [ 116.432383, 22.940721 ], [ 116.4320939, 22.94072901 ], [ 116.4315758, 22.94048502 ], [ 116.4312961, 22.94050401 ], [ 116.4309689, 22.94036703 ], [ 116.430574, 22.94027001 ], [ 116.4302831, 22.94003403 ], [ 116.429962, 22.93991397 ], [ 116.4295699, 22.93965702 ], [ 116.4293482, 22.93956702 ], [ 116.428347, 22.93927299 ], [ 116.427506, 22.93910298 ], [ 116.4271921, 22.93896303 ], [ 116.4267479, 22.939029 ], [ 116.4264901, 22.93898904 ], [ 116.42647, 22.93877403 ], [ 116.4263209, 22.93861599 ], [ 116.4261622, 22.93819704 ], [ 116.425462, 22.93789203 ], [ 116.4249299, 22.93784901 ], [ 116.4247261, 22.93767396 ], [ 116.424535, 22.93774497 ], [ 116.424396, 22.93787601 ], [ 116.4241958, 22.93784604 ], [ 116.42387, 22.93762896 ], [ 116.423397, 22.937436 ], [ 116.422704, 22.93696899 ], [ 116.4226961, 22.93676604 ], [ 116.422551, 22.93659603 ], [ 116.422196, 22.93653204 ], [ 116.421511, 22.93626798 ], [ 116.4207488, 22.93621497 ], [ 116.420472, 22.936374 ], [ 116.420162, 22.93629102 ], [ 116.4198769, 22.93631604 ], [ 116.4197498, 22.93652403 ], [ 116.4193769, 22.93648902 ], [ 116.4191378, 22.936581 ], [ 116.4185669, 22.93644699 ], [ 116.4183548, 22.93647201 ], [ 116.4180751, 22.93641702 ], [ 116.417795, 22.93729299 ], [ 116.417763, 22.93758099 ], [ 116.4175639, 22.93767396 ], [ 116.4175769, 22.93785801 ], [ 116.417525, 22.93808796 ], [ 116.417399, 22.93832898 ], [ 116.4172421, 22.93849899 ], [ 116.4169192, 22.93854597 ], [ 116.4166679, 22.938516 ], [ 116.4164929, 22.93856397 ], [ 116.4163921, 22.93871904 ], [ 116.4163619, 22.93892703 ], [ 116.415734, 22.93909299 ], [ 116.4155141, 22.93923402 ], [ 116.4153359, 22.93927902 ], [ 116.4151051, 22.93916301 ], [ 116.4148492, 22.93929 ], [ 116.4147199, 22.93915896 ], [ 116.4144881, 22.93915302 ], [ 116.4142829, 22.93929099 ], [ 116.4140842, 22.93924401 ], [ 116.4137731, 22.93906401 ], [ 116.413304, 22.93894503 ], [ 116.412034, 22.93903404 ], [ 116.411603, 22.93923204 ], [ 116.4112481, 22.93908597 ], [ 116.410838, 22.93906401 ], [ 116.4099769, 22.93929396 ], [ 116.4084098, 22.93874397 ], [ 116.4068831, 22.93833303 ], [ 116.4063499, 22.93803603 ], [ 116.405572, 22.937751 ], [ 116.4040718, 22.93711101 ], [ 116.4036949, 22.936869 ], [ 116.4028799, 22.93664598 ], [ 116.4023842, 22.93632801 ], [ 116.4021862, 22.93566102 ], [ 116.401698, 22.93513002 ], [ 116.4012149, 22.93492599 ], [ 116.400591, 22.93476597 ], [ 116.4000589, 22.93442703 ], [ 116.3992741, 22.93403301 ], [ 116.3987939, 22.93353603 ], [ 116.3980019, 22.93305201 ], [ 116.397905, 22.93279101 ], [ 116.3979259, 22.93227 ], [ 116.3978111, 22.93207902 ], [ 116.3975789, 22.93197597 ], [ 116.39722, 22.93190496 ], [ 116.397068, 22.93202601 ], [ 116.3970979, 22.93232499 ], [ 116.3969791, 22.93250499 ], [ 116.3967649, 22.93260696 ], [ 116.3965709, 22.93248303 ], [ 116.3959031, 22.93251903 ], [ 116.395627, 22.93286004 ], [ 116.3952619, 22.93266204 ], [ 116.3949682, 22.932396 ], [ 116.3947028, 22.93236396 ], [ 116.3944789, 22.93242498 ], [ 116.3939929, 22.93260201 ], [ 116.3934652, 22.93310403 ], [ 116.3930609, 22.933278 ], [ 116.392914, 22.93343802 ], [ 116.3926249, 22.93346304 ], [ 116.3924741, 22.93369596 ], [ 116.3922721, 22.93384302 ], [ 116.3917091, 22.93394094 ] ] } },
{ "type": "Feature", "properties": { "岸段号": 60, "所在地": "揭阳市惠来县", "名称": "沟疏村东南侧严格保护岸线", "管控类型": "严格保护岸线", "cd": 0.729054, "标注": "60-沟疏村严格保护岸段", "比例尺": "", "名录名": "沟疏村严格保护岸段", "F_": "-" }, "geometry": { "type": "LineString", "coordinates": [ [ 116.381484, 22.93033797 ], [ 116.380876, 22.92999102 ], [ 116.3807978, 22.929534 ], [ 116.380669, 22.92967197 ], [ 116.3801948, 22.92971499 ], [ 116.3798291, 22.92980499 ], [ 116.3796851, 22.92992604 ], [ 116.3792981, 22.929894 ], [ 116.3790911, 22.92995196 ], [ 116.378793, 22.92993504 ], [ 116.378181, 22.93020396 ], [ 116.3773181, 22.93020396 ], [ 116.3768242, 22.93029099 ], [ 116.3758651, 22.92998103 ], [ 116.3756999, 22.92975504 ], [ 116.375895, 22.92955389 ] ] } },
{ "type": "Feature", "properties": { "岸段号": 69, "所在地": "揭阳市惠来县", "名称": "龙江改河口严格保护岸线", "管控类型": "严格保护岸线", "cd": 0.341756, "标注": "69-龙江河口严格保护岸段", "比例尺": "", "名录名": "龙江河口严格保护岸段", "F_": "-" }, "geometry": { "type": "LineString", "coordinates": [ [ 116.2436828, 22.93784496 ], [ 116.24063, 22.93661403 ] ] } },
{ "type": "Feature", "properties": { "岸段号": 71, "所在地": "揭阳市惠来县、汕尾市陆丰市", "名称": "岐石镇-甲东镇严格保护岸线", "管控类型": "严格保护岸线", "cd": 0.382167, "标注": "71-神泉港至甲子港严格保护岸段", "比例尺": "", "名录名": "神泉港至甲子港严格保护岸段", "F_": "-" }, "geometry": { "type": "LineString", "coordinates": [ [ 116.0942749, 22.82139099 ], [ 116.09401, 22.82207301 ], [ 116.093727, 22.82254299 ], [ 116.09347, 22.82281299 ], [ 116.0929861, 22.82309199 ], [ 116.0924789, 22.82331402 ], [ 116.0919439, 22.82342697 ], [ 116.0916991, 22.82343597 ] ] } },
{ "type": "Feature", "properties": { "岸段号": 71, "所在地": "揭阳市惠来县、汕尾市陆丰市", "名称": "岐石镇-甲东镇严格保护岸线", "管控类型": "严格保护岸线", "cd": 18.726, "标注": "71-神泉港至甲子港严格保护岸段", "比例尺": "", "名录名": "神泉港至甲子港严格保护岸段", "F_": "-" }, "geometry": { "type": "LineString", "coordinates": [ [ 116.227692, 22.92608097 ], [ 116.227318, 22.925862 ], [ 116.227179, 22.925583 ], [ 116.2269889, 22.925538 ], [ 116.2267538, 22.92535296 ], [ 116.226549, 22.925367 ], [ 116.2256681, 22.92497604 ], [ 116.225523, 22.92478704 ], [ 116.224898, 22.92448401 ], [ 116.2252199, 22.924359 ], [ 116.225352, 22.92420996 ], [ 116.2253189, 22.92397704 ], [ 116.2250989, 22.92396804 ], [ 116.224659, 22.92377904 ], [ 116.2245668, 22.92361299 ], [ 116.224429, 22.92373899 ], [ 116.2244869, 22.92399198 ], [ 116.2240931, 22.923576 ], [ 116.2241831, 22.92339897 ], [ 116.2238609, 22.92315903 ], [ 116.2237709, 22.92299604 ], [ 116.223215, 22.92265899 ], [ 116.2225778, 22.92207903 ], [ 116.2221682, 22.92183099 ], [ 116.221378, 22.92124797 ], [ 116.2198339, 22.91959899 ], [ 116.2197421, 22.91943897 ], [ 116.2194332, 22.91910975 ], [ 116.218093, 22.91778603 ], [ 116.2177049, 22.91753097 ], [ 116.217428, 22.91720904 ], [ 116.216473, 22.91637096 ], [ 116.2159621, 22.91578398 ], [ 116.2155989, 22.91547204 ], [ 116.2153778, 22.91512698 ], [ 116.2151381, 22.91487903 ], [ 116.2146211, 22.91439501 ], [ 116.213949, 22.91385897 ], [ 116.212603, 22.91229198 ], [ 116.2123718, 22.91207904 ], [ 116.2122059, 22.91199804 ], [ 116.2121231, 22.911831 ], [ 116.211483, 22.91122098 ], [ 116.2102961, 22.90990797 ], [ 116.2098749, 22.90957398 ], [ 116.2095592, 22.90924701 ], [ 116.2087391, 22.90828797 ], [ 116.2072879, 22.906458 ], [ 116.206375, 22.90517397 ], [ 116.2060441, 22.90456602 ], [ 116.205467, 22.90381101 ], [ 116.204611, 22.90303899 ], [ 116.20445, 22.90294602 ], [ 116.2039939, 22.90237497 ], [ 116.2026439, 22.90107204 ], [ 116.202465, 22.90101201 ], [ 116.20188, 22.90113297 ], [ 116.2016831, 22.90107996 ], [ 116.2011341, 22.90067604 ], [ 116.200562, 22.90017996 ], [ 116.2003961, 22.89983904 ], [ 116.1998309, 22.89919599 ], [ 116.199733, 22.899024 ], [ 116.1997531, 22.89882303 ], [ 116.1996149, 22.89866301 ], [ 116.199117, 22.89845304 ], [ 116.1976291, 22.89704796 ], [ 116.1969901, 22.89656799 ], [ 116.1967118, 22.89628404 ], [ 116.195715, 22.89504096 ], [ 116.1954068, 22.89478698 ], [ 116.194892, 22.89402198 ], [ 116.1939139, 22.89304296 ], [ 116.1933239, 22.89231999 ], [ 116.1923699, 22.890987 ], [ 116.1912229, 22.88958903 ], [ 116.190887, 22.88886903 ], [ 116.190446, 22.88828898 ], [ 116.189964, 22.88741796 ], [ 116.1897941, 22.88691603 ], [ 116.1895259, 22.88632797 ], [ 116.1892649, 22.88595501 ], [ 116.1890122, 22.88541501 ], [ 116.1889261, 22.88503404 ], [ 116.1878749, 22.88295504 ], [ 116.1873241, 22.88217699 ], [ 116.186234, 22.88107296 ], [ 116.1859961, 22.88094399 ], [ 116.1853589, 22.88045304 ], [ 116.184047, 22.87964799 ], [ 116.1835628, 22.87941804 ], [ 116.1828821, 22.87929798 ], [ 116.181076, 22.87870299 ], [ 116.18006, 22.87811196 ], [ 116.1795982, 22.87769598 ], [ 116.1790222, 22.87733301 ], [ 116.1784681, 22.8771 ], [ 116.177963, 22.87669698 ], [ 116.1775372, 22.87624896 ], [ 116.1761198, 22.87517103 ], [ 116.174907, 22.87309599 ], [ 116.1741892, 22.87197603 ], [ 116.1734771, 22.871043 ], [ 116.173058, 22.87060002 ], [ 116.172796, 22.87021599 ], [ 116.172508, 22.869594 ], [ 116.1721552, 22.86854298 ], [ 116.1719039, 22.86815697 ], [ 116.1715601, 22.86775404 ], [ 116.1701201, 22.86641097 ], [ 116.168832, 22.86563598 ], [ 116.1685372, 22.86532998 ], [ 116.167873, 22.864455 ], [ 116.167752, 22.86409302 ], [ 116.1677542, 22.86387603 ], [ 116.1678172, 22.86370404 ], [ 116.1679529, 22.863573 ], [ 116.168135, 22.86352296 ], [ 116.168297, 22.86341703 ], [ 116.1683471, 22.86323298 ], [ 116.1682582, 22.86307602 ], [ 116.1680738, 22.86306198 ], [ 116.1678982, 22.86310599 ], [ 116.1676591, 22.86303804 ], [ 116.1675061, 22.86289899 ], [ 116.1672368, 22.86243297 ], [ 116.1672322, 22.86223299 ], [ 116.167288, 22.862061 ], [ 116.167419, 22.86192996 ], [ 116.167225, 22.86162099 ], [ 116.166726, 22.86204696 ], [ 116.1662918, 22.862142 ], [ 116.1659549, 22.86263403 ], [ 116.165804, 22.86275904 ], [ 116.1656309, 22.86281601 ], [ 116.1652432, 22.86269802 ], [ 116.164147, 22.86181503 ], [ 116.1632221, 22.86114597 ], [ 116.1624719, 22.860522 ], [ 116.1618919, 22.86019197 ], [ 116.1607579, 22.85943498 ], [ 116.1602971, 22.85902602 ], [ 116.1599281, 22.85858799 ], [ 116.1597679, 22.85845497 ], [ 116.159395, 22.85818101 ], [ 116.1589669, 22.85799201 ], [ 116.158505, 22.85770302 ], [ 116.1575269, 22.85671203 ], [ 116.157208, 22.85630901 ], [ 116.1565499, 22.85569197 ], [ 116.1561571, 22.85519103 ], [ 116.155597, 22.85467803 ], [ 116.1544039, 22.853421 ], [ 116.1539932, 22.85296101 ], [ 116.1536749, 22.85241399 ], [ 116.153059, 22.85187804 ], [ 116.152789, 22.85154297 ], [ 116.1525679, 22.85111403 ], [ 116.1526021, 22.85083197 ], [ 116.152727, 22.85065998 ], [ 116.15315, 22.850559 ], [ 116.153199, 22.85036397 ], [ 116.152853, 22.85018496 ], [ 116.152763, 22.84982298 ], [ 116.1524401, 22.85000298 ], [ 116.1521741, 22.84994097 ], [ 116.1518461, 22.85021304 ], [ 116.1516769, 22.85028801 ], [ 116.1514609, 22.85021799 ], [ 116.151358, 22.85006796 ], [ 116.1513421, 22.84943697 ], [ 116.1511189, 22.84942401 ], [ 116.15071, 22.84962903 ], [ 116.150449, 22.84981101 ], [ 116.1496969, 22.85040303 ], [ 116.1495511, 22.85056503 ], [ 116.1493549, 22.85065404 ], [ 116.148713, 22.85039799 ], [ 116.1483739, 22.85020701 ], [ 116.1480359, 22.84995303 ], [ 116.1477839, 22.84964199 ], [ 116.1476438, 22.84924599 ], [ 116.1476528, 22.84884396 ], [ 116.147709, 22.84867296 ], [ 116.14765, 22.84827102 ], [ 116.1477331, 22.847904 ], [ 116.147444, 22.84759899 ], [ 116.1472882, 22.84775901 ], [ 116.147093, 22.84834203 ], [ 116.1468569, 22.84848396 ], [ 116.1466402, 22.84854597 ], [ 116.1461138, 22.84856703 ], [ 116.145558, 22.84844301 ], [ 116.1453719, 22.848471 ], [ 116.144865, 22.84819002 ], [ 116.144546, 22.84813899 ], [ 116.144145, 22.84786197 ], [ 116.143646, 22.84761303 ], [ 116.1426172, 22.84683903 ], [ 116.141922, 22.846239 ], [ 116.1411098, 22.84547202 ], [ 116.1397469, 22.84396902 ], [ 116.1392018, 22.84317702 ], [ 116.138889, 22.84258797 ], [ 116.138731, 22.84215696 ], [ 116.138727, 22.84175601 ], [ 116.138547, 22.84140402 ], [ 116.138371, 22.84124904 ], [ 116.1381301, 22.84113798 ], [ 116.137606, 22.84101603 ], [ 116.1366991, 22.84062597 ], [ 116.136517, 22.84053498 ], [ 116.136175, 22.84025697 ], [ 116.1356231, 22.83961104 ], [ 116.1356, 22.83921 ], [ 116.1354719, 22.83903702 ], [ 116.135267, 22.83910497 ], [ 116.1351011, 22.83871302 ], [ 116.135141, 22.83853698 ], [ 116.1350309, 22.83837597 ], [ 116.1350341, 22.83815304 ], [ 116.1348998, 22.838031 ], [ 116.1346979, 22.83815601 ], [ 116.134628, 22.83833304 ], [ 116.134443, 22.83838902 ], [ 116.1343181, 22.83852699 ], [ 116.134277, 22.83814197 ], [ 116.134115, 22.838238 ], [ 116.1341078, 22.838445 ], [ 116.1335891, 22.83843096 ], [ 116.133408, 22.83855003 ], [ 116.1334051, 22.83874803 ], [ 116.1332888, 22.838922 ], [ 116.132918, 22.83891399 ], [ 116.1326711, 22.83886098 ], [ 116.132269, 22.83869799 ], [ 116.1320738, 22.83834204 ], [ 116.1318031, 22.83807096 ], [ 116.131842, 22.83785901 ], [ 116.1316699, 22.837761 ], [ 116.1314831, 22.83776001 ], [ 116.1310478, 22.83725304 ], [ 116.1309931, 22.83705198 ], [ 116.130802, 22.83703902 ], [ 116.1300251, 22.83753402 ], [ 116.129561, 22.837554 ], [ 116.129344, 22.83761601 ], [ 116.1291589, 22.83758703 ], [ 116.1289739, 22.83749901 ], [ 116.1284191, 22.83706701 ], [ 116.1283028, 22.836888 ], [ 116.1283799, 22.83663096 ], [ 116.1281261, 22.836618 ], [ 116.1277538, 22.83670701 ], [ 116.1275951, 22.83683796 ], [ 116.1272491, 22.837005 ], [ 116.127085, 22.83689898 ], [ 116.1271418, 22.83672699 ], [ 116.127081, 22.83653196 ], [ 116.126896, 22.83649596 ], [ 116.1261871, 22.83695703 ], [ 116.1255571, 22.83752601 ], [ 116.1249862, 22.83771204 ], [ 116.1233849, 22.83774696 ], [ 116.1221191, 22.83743997 ], [ 116.121308, 22.83712803 ], [ 116.1209819, 22.836717 ], [ 116.1203962, 22.83618303 ], [ 116.1201161, 22.83582303 ], [ 116.119868, 22.83562899 ], [ 116.119656, 22.83554601 ], [ 116.1195682, 22.83530904 ], [ 116.1193151, 22.83525198 ], [ 116.1191531, 22.83536304 ], [ 116.118985, 22.83561297 ], [ 116.1188971, 22.83593697 ], [ 116.11877, 22.83616404 ], [ 116.118832, 22.83642504 ], [ 116.1180439, 22.836636 ], [ 116.1172141, 22.83643503 ], [ 116.1164542, 22.836006 ], [ 116.115709, 22.83576003 ], [ 116.115336, 22.83549903 ], [ 116.1147532, 22.83525396 ], [ 116.113946, 22.83464196 ], [ 116.1133222, 22.83437403 ], [ 116.112722, 22.83394104 ], [ 116.1116618, 22.83288903 ] ] } },
{ "type": "Feature", "properties": { "岸段号": 71, "所在地": "揭阳市惠来县、汕尾市陆丰市", "名称": "岐石镇-甲东镇严格保护岸线", "管控类型": "严格保护岸线", "cd": 1.49044, "标注": "71-神泉港至甲子港严格保护岸段", "比例尺": "", "名录名": "神泉港至甲子港严格保护岸段", "F_": "-" }, "geometry": { "type": "LineString", "coordinates": [ [ 116.110328, 22.83256602 ], [ 116.110148, 22.83252696 ], [ 116.110022, 22.83239502 ], [ 116.1092189, 22.83193602 ], [ 116.108941, 22.83169599 ], [ 116.1086378, 22.83123897 ], [ 116.1084571, 22.83118299 ], [ 116.1080888, 22.83119901 ], [ 116.107916, 22.83111999 ], [ 116.107537, 22.83072903 ], [ 116.1073462, 22.83021396 ], [ 116.106881, 22.829913 ], [ 116.1067151, 22.82982201 ], [ 116.1063518, 22.829796 ], [ 116.1062791, 22.82963103 ], [ 116.1061351, 22.82952303 ], [ 116.1059551, 22.82949396 ], [ 116.1052538, 22.82967603 ], [ 116.105072, 22.82964597 ], [ 116.1049169, 22.82953401 ], [ 116.1045209, 22.82912604 ], [ 116.1041738, 22.82861601 ], [ 116.103744, 22.82768298 ], [ 116.1036068, 22.82726502 ], [ 116.103442, 22.82701698 ], [ 116.1031039, 22.82667804 ], [ 116.1023839, 22.82632596 ], [ 116.101687, 22.82583798 ], [ 116.1006109, 22.82481198 ], [ 116.1005069, 22.82464404 ], [ 116.100509, 22.82436396 ] ] } },
{ "type": "Feature", "properties": { "岸段号": 414, "所在地": "湛江市吴川市、坡头区", "名称": "塘尾-乾塘严格保护岸线", "管控类型": "严格保护岸线", "cd": 19.9833, "标注": "414-塘尾—鉴江口严格保护岸段", "比例尺": "", "名录名": "塘尾—鉴江口严格保护岸段", "F_": "-" }, "geometry": { "type": "LineString", "coordinates": [ [ 110.7433631, 21.38539302 ], [ 110.7433778, 21.38495598 ], [ 110.74351, 21.38443902 ], [ 110.7434909, 21.38421699 ], [ 110.7435391, 21.38394096 ], [ 110.7437749, 21.38340402 ], [ 110.743812, 21.38303799 ], [ 110.743609, 21.382299 ], [ 110.7433051, 21.38175999 ], [ 110.742683, 21.38020299 ], [ 110.7427061, 21.37999797 ], [ 110.7428371, 21.37974804 ], [ 110.743079, 21.37946598 ], [ 110.742926, 21.37882698 ], [ 110.7427522, 21.37874004 ], [ 110.742637, 21.37853502 ], [ 110.743083, 21.37820598 ], [ 110.743222, 21.377889 ], [ 110.7431269, 21.37744296 ], [ 110.7428209, 21.37697703 ], [ 110.7425351, 21.37665897 ], [ 110.7421229, 21.37639104 ], [ 110.7417431, 21.37604301 ], [ 110.7411779, 21.37569804 ], [ 110.7405961, 21.37516902 ], [ 110.7392198, 21.37442301 ], [ 110.7383551, 21.37419297 ], [ 110.738129, 21.37432203 ], [ 110.737854, 21.37436298 ], [ 110.7370001, 21.37376997 ], [ 110.7353171, 21.37286196 ], [ 110.734524, 21.37232502 ], [ 110.7337118, 21.37171797 ], [ 110.733026, 21.371094 ], [ 110.7320339, 21.370428 ], [ 110.7316901, 21.37011903 ], [ 110.7299318, 21.36889197 ], [ 110.729515, 21.36852099 ], [ 110.7287482, 21.36795597 ], [ 110.7275969, 21.36684402 ], [ 110.7270061, 21.36641904 ], [ 110.7262822, 21.36561498 ], [ 110.723382, 21.36293604 ], [ 110.722477, 21.36200796 ], [ 110.7213739, 21.36074202 ], [ 110.7199901, 21.35926404 ], [ 110.7190591, 21.35838798 ], [ 110.7189022, 21.35826099 ], [ 110.7185918, 21.35817702 ], [ 110.718068, 21.35815596 ], [ 110.7179302, 21.35828196 ], [ 110.7177502, 21.35831499 ], [ 110.717734, 21.35812302 ], [ 110.7181418, 21.357846 ], [ 110.7182261, 21.35764404 ], [ 110.7167209, 21.35588301 ], [ 110.7162929, 21.35532204 ], [ 110.7157169, 21.354822 ], [ 110.7152629, 21.35426103 ], [ 110.7139, 21.35284803 ], [ 110.7132451, 21.35205801 ], [ 110.7124898, 21.35130003 ], [ 110.7121079, 21.35079396 ], [ 110.7104468, 21.34911096 ], [ 110.7102701, 21.34876797 ], [ 110.7098561, 21.34823697 ], [ 110.7088808, 21.34718298 ], [ 110.7079121, 21.34598103 ], [ 110.7077191, 21.345822 ], [ 110.7070351, 21.34488798 ], [ 110.7065351, 21.34438497 ], [ 110.705904, 21.34354104 ], [ 110.705391, 21.34301301 ], [ 110.7042131, 21.341322 ], [ 110.703371, 21.34041804 ], [ 110.702876, 21.33971298 ], [ 110.7012751, 21.337686 ], [ 110.700895, 21.33715104 ], [ 110.700283, 21.33615204 ], [ 110.699753, 21.33550404 ], [ 110.698844, 21.33421398 ], [ 110.6984048, 21.333717 ], [ 110.6976128, 21.33251199 ], [ 110.6969558, 21.33166302 ], [ 110.6964518, 21.33087399 ], [ 110.6962351, 21.33063504 ], [ 110.6940989, 21.32758998 ], [ 110.6936978, 21.32736903 ], [ 110.6935769, 21.32714403 ], [ 110.6935661, 21.32690796 ], [ 110.693399, 21.32655498 ], [ 110.6930801, 21.32618697 ], [ 110.6928022, 21.32578098 ], [ 110.6923, 21.32525304 ], [ 110.6916181, 21.32490798 ], [ 110.691356, 21.325041 ], [ 110.6906731, 21.32523099 ], [ 110.6911159, 21.32496801 ], [ 110.6913971, 21.32490303 ], [ 110.691626, 21.32473698 ], [ 110.6916721, 21.32451198 ], [ 110.6915519, 21.32384796 ], [ 110.6911181, 21.32308602 ], [ 110.69014, 21.32163099 ], [ 110.689897, 21.321387 ], [ 110.688467, 21.31941303 ], [ 110.6878601, 21.31878096 ], [ 110.6860759, 21.31667199 ], [ 110.6840351, 21.314574 ], [ 110.6825429, 21.31236297 ], [ 110.6815972, 21.31122501 ], [ 110.6805449, 21.310236 ], [ 110.6796521, 21.30894999 ], [ 110.6782852, 21.30736698 ], [ 110.677864, 21.30682302 ], [ 110.676132, 21.30392097 ], [ 110.674796, 21.30153903 ], [ 110.672689, 21.29764797 ], [ 110.6712511, 21.29483601 ], [ 110.6706172, 21.29371299 ], [ 110.670313, 21.29306103 ], [ 110.6701319, 21.29244804 ], [ 110.6698741, 21.29199903 ], [ 110.668923, 21.28984299 ], [ 110.6683801, 21.28851702 ], [ 110.668316, 21.28823604 ], [ 110.668167, 21.28809096 ], [ 110.6674661, 21.28595904 ], [ 110.6672962, 21.28562802 ], [ 110.6662921, 21.28304097 ], [ 110.6659508, 21.281967 ], [ 110.6641598, 21.27704103 ], [ 110.6636242, 21.27530403 ], [ 110.6629211, 21.27328101 ], [ 110.6621521, 21.27138102 ], [ 110.6610509, 21.26820303 ], [ 110.6606851, 21.26725596 ], [ 110.6590511, 21.26344401 ], [ 110.6583232, 21.26164302 ], [ 110.6565649, 21.25780902 ], [ 110.655981, 21.25667898 ], [ 110.6554691, 21.25579797 ], [ 110.6549809, 21.25507104 ], [ 110.65415, 21.25352304 ], [ 110.6532911, 21.25226196 ], [ 110.652336, 21.25059903 ], [ 110.650977, 21.24864396 ], [ 110.6506789, 21.24831402 ], [ 110.6499751, 21.24771201 ], [ 110.649164, 21.24715599 ], [ 110.648299, 21.24677898 ], [ 110.6475091, 21.24618696 ], [ 110.6452721, 21.24468297 ], [ 110.644812, 21.24453303 ], [ 110.644456, 21.24447804 ], [ 110.6437421, 21.24447201 ], [ 110.6433569, 21.24456498 ], [ 110.6429159, 21.24476802 ], [ 110.642404, 21.24488403 ] ] } },
{ "type": "Feature", "properties": { "岸段号": 75, "所在地": "汕尾市陆丰市", "名称": "甲湖湾严格保护岸线", "管控类型": "严格保护岸线", "cd": 8.18618, "标注": "75-甲湖湾严格保护岸段", "比例尺": "", "名录名": "甲湖湾严格保护岸段", "F_": "-" }, "geometry": { "type": "LineString", "coordinates": [ [ 116.0743529, 22.84804197 ], [ 116.073342, 22.84827696 ], [ 116.0721022, 22.84877898 ], [ 116.070579, 22.84914402 ], [ 116.0692819, 22.84928397 ], [ 116.0675561, 22.84956603 ], [ 116.0658011, 22.84957503 ], [ 116.0632951, 22.84987698 ], [ 116.062987, 22.84995798 ], [ 116.062385, 22.84997202 ], [ 116.061781, 22.850091 ], [ 116.0613158, 22.85012799 ], [ 116.0610851, 22.85008803 ], [ 116.0606999, 22.85014104 ], [ 116.0589409, 22.85014896 ], [ 116.0581871, 22.85021403 ], [ 116.057902, 22.85018703 ], [ 116.0575949, 22.85025597 ], [ 116.0569451, 22.85026101 ], [ 116.0559781, 22.85036703 ], [ 116.055544, 22.850343 ], [ 116.0551822, 22.85037702 ], [ 116.054276, 22.85028396 ], [ 116.0525189, 22.85038296 ], [ 116.051638, 22.85030799 ], [ 116.0512351, 22.85041698 ], [ 116.051018, 22.85040501 ], [ 116.050721, 22.85032203 ], [ 116.0502509, 22.85013699 ], [ 116.0496551, 22.85007498 ], [ 116.0490971, 22.85009901 ], [ 116.0488069, 22.85017803 ], [ 116.048196, 22.85000397 ], [ 116.0480261, 22.84987104 ], [ 116.047544, 22.84976799 ], [ 116.0451428, 22.84984503 ], [ 116.0440808, 22.84969896 ], [ 116.0435149, 22.84974198 ], [ 116.038539, 22.84879104 ], [ 116.0355179, 22.84793496 ], [ 116.0345441, 22.84759899 ], [ 116.032928, 22.84712604 ], [ 116.029688, 22.84603803 ], [ 116.0257151, 22.844421 ], [ 116.024868, 22.84386399 ], [ 116.0246891, 22.84359597 ], [ 116.0244731, 22.84364196 ], [ 116.024224, 22.84376004 ], [ 116.023937, 22.843791 ], [ 116.0234161, 22.84369803 ], [ 116.022884, 22.84354404 ], [ 116.0218822, 22.843188 ], [ 116.021259, 22.84301304 ], [ 116.0183779, 22.84175997 ], [ 116.017366, 22.84141104 ], [ 116.015701, 22.84071804 ], [ 116.014307, 22.83997302 ], [ 116.0130499, 22.83915096 ], [ 116.0115682, 22.83834699 ], [ 116.010184, 22.83751899 ], [ 116.0094211, 22.83685803 ], [ 116.008295, 22.83521904 ], [ 116.0080808, 22.835007 ], [ 116.0079509, 22.8348 ], [ 116.0077079, 22.83473898 ], [ 116.007449, 22.83506703 ], [ 116.0072201, 22.83505596 ], [ 116.0065879, 22.83478497 ], [ 116.0051609, 22.83487902 ], [ 116.0028112, 22.834539 ], [ 116.0018888, 22.83364602 ], [ 116.0012819, 22.83357096 ], [ 116.0006771, 22.83299703 ] ] } },
{ "type": "Feature", "properties": { "岸段号": 81, "所在地": "汕尾市陆丰市", "名称": "湖东—碣严格保护岸线", "管控类型": "严格保护岸线", "cd": 5.93217, "标注": "81-湖东港至田尾山严格保护岸段", "比例尺": "", "名录名": "湖东港至田尾山严格保护岸段", "F_": "-" }, "geometry": { "type": "LineString", "coordinates": [ [ 115.9460629, 22.81151898 ], [ 115.9459949, 22.81132503 ], [ 115.9461191, 22.81061304 ], [ 115.9465489, 22.80965796 ], [ 115.946672, 22.80917601 ], [ 115.9470871, 22.80841101 ], [ 115.947103, 22.80819897 ], [ 115.94678, 22.80804597 ], [ 115.946465, 22.808169 ], [ 115.9461101, 22.80854403 ], [ 115.9458412, 22.80920202 ], [ 115.9444789, 22.81007403 ], [ 115.942846, 22.81060998 ], [ 115.942099, 22.81066596 ], [ 115.941569, 22.81079403 ], [ 115.938689, 22.81076397 ], [ 115.9376551, 22.810635 ], [ 115.9373048, 22.81064004 ], [ 115.936259, 22.81046499 ], [ 115.9357118, 22.81043196 ], [ 115.935385, 22.81030596 ], [ 115.9336991, 22.81017096 ], [ 115.9327598, 22.80990897 ], [ 115.9325618, 22.80994902 ], [ 115.931957, 22.80982797 ], [ 115.931763, 22.80978603 ], [ 115.9315211, 22.80964698 ], [ 115.9311308, 22.80955896 ], [ 115.9309102, 22.80957597 ], [ 115.930436, 22.80926097 ], [ 115.930148, 22.80919698 ], [ 115.9293409, 22.80890097 ], [ 115.92882, 22.80880296 ], [ 115.928554, 22.80883302 ], [ 115.92841, 22.80867102 ], [ 115.9281788, 22.80852603 ], [ 115.9278271, 22.80841398 ], [ 115.9273901, 22.80815901 ], [ 115.9265531, 22.807845 ], [ 115.9255951, 22.80742299 ], [ 115.9253381, 22.80745899 ], [ 115.924828, 22.80715299 ], [ 115.9239031, 22.80668796 ], [ 115.9235579, 22.80640104 ], [ 115.922921, 22.80623499 ], [ 115.922533, 22.80582504 ], [ 115.922291, 22.80573603 ], [ 115.922057, 22.80571704 ], [ 115.9216999, 22.80550698 ], [ 115.9207031, 22.80518298 ], [ 115.9205209, 22.80487203 ], [ 115.9200749, 22.80459402 ], [ 115.9194449, 22.80433797 ], [ 115.918538, 22.80369798 ], [ 115.917412, 22.802985 ], [ 115.917044, 22.80286098 ], [ 115.9147501, 22.80132603 ], [ 115.913849, 22.80067704 ], [ 115.912998, 22.80030597 ], [ 115.9128191, 22.80005298 ], [ 115.9122661, 22.79949399 ], [ 115.9116289, 22.79938698 ], [ 115.9113971, 22.79890296 ], [ 115.9105619, 22.79829402 ], [ 115.9102901, 22.79819502 ], [ 115.9101551, 22.79798496 ], [ 115.909933, 22.79802402 ], [ 115.9094272, 22.79740302 ], [ 115.9087979, 22.79708496 ], [ 115.908673, 22.79654703 ], [ 115.9082932, 22.79618397 ], [ 115.9077611, 22.79604501 ], [ 115.907548, 22.79574099 ], [ 115.906738, 22.79510703 ], [ 115.90655, 22.79483604 ], [ 115.906324, 22.79460402 ], [ 115.9051928, 22.79378403 ], [ 115.905145, 22.79333403 ], [ 115.903769, 22.79167398 ], [ 115.903886, 22.791096 ], [ 115.904196, 22.79075301 ] ] } },
{ "type": "Feature", "properties": { "岸段号": 81, "所在地": "汕尾市陆丰市", "名称": "湖东—碣严格保护岸线", "管控类型": "严格保护岸线", "cd": 9.60326, "标注": "81-湖东港至田尾山严格保护岸段", "比例尺": "", "名录名": "湖东港至田尾山严格保护岸段", "F_": "-" }, "geometry": { "type": "LineString", "coordinates": [ [ 115.8983122, 22.79282796 ], [ 115.8982139, 22.79299896 ], [ 115.897365, 22.79313702 ], [ 115.897099, 22.79323296 ], [ 115.896829, 22.79347398 ], [ 115.895979, 22.79377701 ], [ 115.89552, 22.79382399 ], [ 115.895182, 22.79371896 ], [ 115.8948781, 22.79356704 ], [ 115.894399, 22.79391696 ], [ 115.8944738, 22.79423097 ], [ 115.8947899, 22.794561 ], [ 115.89538, 22.79460402 ], [ 115.8953749, 22.79518398 ], [ 115.895259, 22.79577303 ], [ 115.8952939, 22.796064 ], [ 115.8944659, 22.79690397 ], [ 115.893333, 22.797828 ], [ 115.8931181, 22.79811897 ], [ 115.8928409, 22.79820501 ], [ 115.892478, 22.79846097 ], [ 115.8924082, 22.79865402 ], [ 115.8921209, 22.798854 ], [ 115.891722, 22.79890404 ], [ 115.8913559, 22.79901096 ], [ 115.8911302, 22.799241 ], [ 115.8907601, 22.79927196 ], [ 115.889854, 22.79957796 ], [ 115.8896279, 22.799619 ], [ 115.8894659, 22.79970396 ], [ 115.8892171, 22.79968704 ], [ 115.8886609, 22.79981097 ], [ 115.887618, 22.799718 ], [ 115.8865661, 22.80005199 ], [ 115.8866251, 22.80035601 ], [ 115.886767, 22.800483 ], [ 115.8869599, 22.80059298 ], [ 115.8872389, 22.80059901 ], [ 115.887065, 22.80068703 ], [ 115.886803, 22.80070701 ], [ 115.8865729, 22.80063699 ], [ 115.8862471, 22.80036699 ], [ 115.8858, 22.80020598 ], [ 115.885116, 22.80003102 ], [ 115.8845962, 22.79977398 ], [ 115.8842002, 22.79950398 ], [ 115.8815149, 22.79883204 ], [ 115.881106, 22.79850597 ], [ 115.878956, 22.79777103 ], [ 115.878289, 22.79734497 ], [ 115.8771161, 22.79673603 ], [ 115.8767989, 22.79657799 ], [ 115.8763309, 22.79642796 ], [ 115.8758579, 22.79613798 ], [ 115.8748672, 22.79537604 ], [ 115.874464, 22.79523501 ], [ 115.8743311, 22.79500299 ], [ 115.872593, 22.79358801 ], [ 115.8721549, 22.79344797 ], [ 115.8716081, 22.79295603 ], [ 115.870928, 22.79204901 ], [ 115.8704662, 22.79183697 ], [ 115.8694531, 22.79149299 ], [ 115.8692429, 22.79131704 ], [ 115.867904, 22.79092599 ], [ 115.8671041, 22.79060901 ], [ 115.8643361, 22.788603 ], [ 115.862634, 22.78747098 ], [ 115.8620281, 22.78699803 ], [ 115.8605039, 22.78606896 ], [ 115.860141, 22.78574901 ], [ 115.8588101, 22.78476603 ], [ 115.857428, 22.78365804 ], [ 115.856537, 22.78304199 ], [ 115.8550139, 22.78186002 ], [ 115.8512231, 22.77839403 ], [ 115.8509138, 22.778172 ], [ 115.849129, 22.77660798 ], [ 115.847815, 22.77504396 ], [ 115.8467281, 22.773888 ], [ 115.846024, 22.77321696 ], [ 115.8452932, 22.77214299 ], [ 115.844517, 22.77152001 ], [ 115.8422558, 22.76907201 ], [ 115.840696, 22.76728596 ], [ 115.8395659, 22.76583804 ], [ 115.8383131, 22.76442999 ], [ 115.8371669, 22.76298198 ], [ 115.836197, 22.76163999 ], [ 115.835162, 22.76036199 ], [ 115.8344381, 22.75922304 ], [ 115.8338621, 22.75855398 ], [ 115.8334312, 22.75795701 ], [ 115.832934, 22.75746102 ], [ 115.832668, 22.75689204 ], [ 115.8326399, 22.75634403 ] ] } },
{ "type": "Feature", "properties": { "岸段号": 81, "所在地": "汕尾市陆丰市", "名称": "湖东—碣严格保护岸线", "管控类型": "严格保护岸线", "cd": 1.32693, "标注": "81-湖东港至田尾山严格保护岸段", "比例尺": "", "名录名": "湖东港至田尾山严格保护岸段", "F_": "-" }, "geometry": { "type": "LineString", "coordinates": [ [ 115.8299528, 22.75496604 ], [ 115.8298139, 22.75517799 ], [ 115.8295291, 22.755339 ], [ 115.8293761, 22.75550397 ], [ 115.8291259, 22.75551801 ], [ 115.82888, 22.75565904 ], [ 115.828303, 22.75574796 ], [ 115.8279091, 22.75551 ], [ 115.827592, 22.75543404 ], [ 115.8271538, 22.75524396 ], [ 115.8258949, 22.75423704 ], [ 115.8258589, 22.75401303 ], [ 115.8257689, 22.75383096 ], [ 115.824649, 22.75258302 ], [ 115.824294, 22.75208199 ], [ 115.8239131, 22.75142796 ], [ 115.823394, 22.75071102 ], [ 115.822008, 22.74926301 ], [ 115.821374, 22.748283 ] ] } },
{ "type": "Feature", "properties": { "岸段号": 87, "所在地": "汕尾市陆丰市", "名称": "金厢镇南侧严格保护岸线", "管控类型": "严格保护岸线", "cd": 10.4845, "标注": "87-碣石港至金厢港严格保护岸段", "比例尺": "", "名录名": "碣石港至金厢港严格保护岸段", "F_": "-" }, "geometry": { "type": "LineString", "coordinates": [ [ 115.7887328, 22.82345397 ], [ 115.788623, 22.82365404 ], [ 115.7879981, 22.82393799 ], [ 115.7878418, 22.82410899 ], [ 115.7876381, 22.82417703 ], [ 115.786813, 22.82487696 ], [ 115.786638, 22.82495202 ], [ 115.78563, 22.82566104 ], [ 115.785374, 22.82595804 ], [ 115.785112, 22.82616099 ], [ 115.7844218, 22.82644296 ], [ 115.7839661, 22.82674797 ], [ 115.782799, 22.82707602 ], [ 115.7818849, 22.82747202 ], [ 115.7816138, 22.82766804 ], [ 115.7809871, 22.82794803 ], [ 115.7807779, 22.82816403 ], [ 115.7806868, 22.828347 ], [ 115.7805169, 22.82853699 ], [ 115.7796389, 22.82905602 ], [ 115.779137, 22.82973201 ], [ 115.7787698, 22.83009696 ], [ 115.778533, 22.83026904 ], [ 115.7781841, 22.83067503 ], [ 115.77802, 22.83112296 ], [ 115.7777629, 22.83135201 ], [ 115.7776751, 22.83152103 ], [ 115.7771891, 22.83189201 ], [ 115.77672, 22.83218199 ], [ 115.7763539, 22.83228504 ], [ 115.775491, 22.83265296 ], [ 115.7746079, 22.83314904 ], [ 115.7742922, 22.833126 ], [ 115.7741179, 22.83332301 ], [ 115.7740571, 22.83351201 ], [ 115.774079, 22.833711 ], [ 115.7733821, 22.834386 ], [ 115.772981, 22.83457797 ], [ 115.7728489, 22.83473196 ], [ 115.7726509, 22.83478299 ], [ 115.7723719, 22.83477597 ], [ 115.7720152, 22.83495597 ], [ 115.77182, 22.83512904 ], [ 115.7718571, 22.83537303 ], [ 115.7720551, 22.83566904 ], [ 115.7721379, 22.83591996 ], [ 115.772, 22.83631704 ], [ 115.7717441, 22.83682599 ], [ 115.7716181, 22.83735699 ], [ 115.771514, 22.83822297 ], [ 115.7713769, 22.83853896 ], [ 115.771, 22.83916203 ], [ 115.770614, 22.83958602 ], [ 115.7704049, 22.83963696 ], [ 115.770024, 22.83986196 ], [ 115.7695679, 22.84003404 ], [ 115.7693029, 22.84024203 ], [ 115.7689148, 22.84045596 ], [ 115.7678881, 22.84073397 ], [ 115.7675411, 22.840902 ], [ 115.7671181, 22.84101603 ], [ 115.766793, 22.84115697 ], [ 115.7659571, 22.84128396 ], [ 115.765619, 22.84144101 ], [ 115.7651579, 22.841532 ], [ 115.7646442, 22.84175799 ], [ 115.7629928, 22.84213599 ], [ 115.7622278, 22.84256898 ], [ 115.7602709, 22.84345701 ], [ 115.7587189, 22.84454502 ], [ 115.758598, 22.844709 ], [ 115.755403, 22.84576596 ], [ 115.7547089, 22.84607403 ], [ 115.7545102, 22.84642404 ], [ 115.7541829, 22.84642701 ], [ 115.7532599, 22.84665696 ], [ 115.7510729, 22.84730397 ], [ 115.750381, 22.847526 ], [ 115.749896, 22.84773399 ], [ 115.7490169, 22.84792002 ], [ 115.7486389, 22.84809399 ], [ 115.748406, 22.848102 ], [ 115.747204, 22.84844598 ], [ 115.7450198, 22.84879203 ], [ 115.7440342, 22.84903701 ], [ 115.7415991, 22.84939602 ], [ 115.7404219, 22.84963902 ], [ 115.7398931, 22.84966503 ], [ 115.737503, 22.85003403 ], [ 115.7352278, 22.85032401 ], [ 115.7338102, 22.85056899 ], [ 115.732553, 22.850676 ], [ 115.729303, 22.85111601 ], [ 115.727891, 22.85122104 ], [ 115.7275199, 22.85133696 ], [ 115.7263481, 22.85143101 ], [ 115.724722, 22.85164701 ], [ 115.722904, 22.85176401 ], [ 115.7219521, 22.85171703 ], [ 115.7210539, 22.85177202 ], [ 115.7167732, 22.85175798 ], [ 115.7142308, 22.85173701 ], [ 115.7092391, 22.85159004 ], [ 115.7073458, 22.85142903 ], [ 115.706551, 22.85129196 ], [ 115.7023469, 22.85089002 ], [ 115.7000209, 22.85075799 ], [ 115.698735, 22.85037297 ] ] } },
{ "type": "Feature", "properties": { "岸段号": 93, "所在地": "汕尾市陆丰市、海丰县、城区", "名称": "碣石湾西北侧严格保护岸线", "管控类型": "严格保护岸线", "cd": 5.96306, "标注": "93-碣石湾西北严格保护岸段", "比例尺": "", "名录名": "碣石湾西北严格保护岸段", "F_": "-" }, "geometry": { "type": "LineString", "coordinates": [ [ 115.655387, 22.87882296 ], [ 115.657115, 22.87901601 ], [ 115.6589089, 22.87914696 ], [ 115.6597549, 22.87925703 ], [ 115.6599569, 22.87943901 ], [ 115.6608659, 22.879467 ], [ 115.6612478, 22.87911699 ], [ 115.6614041, 22.87885896 ], [ 115.6615351, 22.87847403 ], [ 115.661538, 22.87802304 ], [ 115.6613731, 22.87732896 ], [ 115.6609829, 22.87651797 ], [ 115.6606279, 22.87654596 ], [ 115.660422, 22.87639503 ], [ 115.6597679, 22.87618299 ], [ 115.6587181, 22.87609002 ], [ 115.658122, 22.87596996 ], [ 115.6574059, 22.87574397 ], [ 115.656476, 22.87555299 ], [ 115.6543769, 22.87525302 ], [ 115.653991, 22.87509102 ], [ 115.6531342, 22.87494702 ], [ 115.6514321, 22.87447596 ], [ 115.649528, 22.87407204 ], [ 115.646791, 22.87333503 ], [ 115.644632, 22.872888 ], [ 115.6436651, 22.87275498 ], [ 115.6416689, 22.872312 ], [ 115.6385318, 22.87148904 ], [ 115.6322722, 22.86930303 ], [ 115.6295009, 22.86817902 ], [ 115.6264762, 22.86723303 ], [ 115.623265, 22.866012 ], [ 115.618414, 22.864482 ], [ 115.6157831, 22.86296199 ], [ 115.6146131, 22.86313803 ] ] } },
{ "type": "Feature", "properties": { "岸段号": 93, "所在地": "汕尾市陆丰市、海丰县、城区", "名称": "碣石湾西北侧严格保护岸线", "管控类型": "严格保护岸线", "cd": 6.27355, "标注": "93-碣石湾西北严格保护岸段", "比例尺": "", "名录名": "碣石湾西北严格保护岸段", "F_": "-" }, "geometry": { "type": "LineString", "coordinates": [ [ 115.6030031, 22.85470701 ], [ 115.6030139, 22.854276 ], [ 115.602606, 22.85348202 ], [ 115.601922, 22.85291898 ], [ 115.6010281, 22.85233398 ], [ 115.599173, 22.85190297 ], [ 115.598291, 22.85158302 ], [ 115.597341, 22.85137404 ], [ 115.5966419, 22.85109801 ], [ 115.5950831, 22.85063397 ], [ 115.591833, 22.84875297 ], [ 115.591423, 22.84831098 ], [ 115.590537, 22.84765596 ], [ 115.5880732, 22.84607997 ], [ 115.5871339, 22.84532703 ], [ 115.5860539, 22.84466697 ], [ 115.5835829, 22.84238898 ], [ 115.5802331, 22.83987996 ], [ 115.5793432, 22.83894198 ], [ 115.5776249, 22.83751701 ], [ 115.5760621, 22.83629697 ], [ 115.5755581, 22.835673 ], [ 115.573702, 22.83395904 ], [ 115.5729226, 22.83334047 ], [ 115.5721309, 22.83259896 ], [ 115.571794, 22.832388 ], [ 115.5677872, 22.82813397 ], [ 115.5670099, 22.82741802 ], [ 115.5662831, 22.82664996 ], [ 115.565737, 22.82622597 ], [ 115.5650821, 22.825566 ], [ 115.564621, 22.82493501 ], [ 115.5638171, 22.823955 ], [ 115.5632069, 22.82289804 ], [ 115.562875, 22.82251401 ], [ 115.5624959, 22.82218497 ], [ 115.5621899, 22.82185098 ], [ 115.561175, 22.820607 ], [ 115.560544, 22.81970601 ], [ 115.560265, 22.81946697 ], [ 115.5590932, 22.81808898 ], [ 115.5590518, 22.8173877 ] ] } },
{ "type": "Feature", "properties": { "岸段号": 93, "所在地": "汕尾市陆丰市、海丰县、城区", "名称": "碣石湾西北侧严格保护岸线", "管控类型": "严格保护岸线", "cd": 0.415556, "标注": "93-碣石湾西北严格保护岸段", "比例尺": "", "名录名": "碣石湾西北严格保护岸段", "F_": "-" }, "geometry": { "type": "LineString", "coordinates": [ [ 115.5512909, 22.79946798 ], [ 115.550852, 22.79906397 ], [ 115.550338, 22.79798397 ], [ 115.5497288, 22.79689902 ], [ 115.5494678, 22.79662803 ], [ 115.5495341, 22.79622303 ] ] } },
{ "type": "Feature", "properties": { "岸段号": 93, "所在地": "汕尾市陆丰市、海丰县、城区", "名称": "碣石湾西北侧严格保护岸线", "管控类型": "严格保护岸线", "cd": 1.81434, "标注": "93-碣石湾西北严格保护岸段", "比例尺": "", "名录名": "碣石湾西北严格保护岸段", "F_": "-" }, "geometry": { "type": "LineString", "coordinates": [ [ 115.5456364, 22.79500164 ], [ 115.5451781, 22.794885 ], [ 115.5444638, 22.79390904 ], [ 115.544007, 22.79311398 ], [ 115.5434591, 22.79193903 ], [ 115.5432899, 22.79145798 ], [ 115.543238, 22.79107296 ], [ 115.5431099, 22.79083302 ], [ 115.5425861, 22.79036196 ], [ 115.542005, 22.79015199 ], [ 115.5416159, 22.789782 ], [ 115.5407159, 22.78700298 ], [ 115.540371, 22.78578402 ], [ 115.539876, 22.78320804 ], [ 115.5394699, 22.781412 ], [ 115.539503, 22.780404 ] ] } },
{ "type": "Feature", "properties": { "岸段号": 93, "所在地": "汕尾市陆丰市、海丰县、城区", "名称": "碣石湾西北侧严格保护岸线", "管控类型": "严格保护岸线", "cd": 1.72665, "标注": "93-碣石湾西北严格保护岸段", "比例尺": "", "名录名": "碣石湾西北严格保护岸段", "F_": "-" }, "geometry": { "type": "LineString", "coordinates": [ [ 115.5338611, 22.78033596 ], [ 115.5321871, 22.77933102 ], [ 115.5315308, 22.77865701 ], [ 115.5307882, 22.77798102 ], [ 115.530494, 22.77754803 ], [ 115.5300991, 22.776786 ], [ 115.5294382, 22.77509202 ], [ 115.529224, 22.77469296 ], [ 115.529152, 22.77449802 ], [ 115.5291379, 22.77389502 ], [ 115.5289658, 22.77384201 ], [ 115.5285641, 22.77397098 ], [ 115.528379, 22.77395703 ], [ 115.528009, 22.77379899 ], [ 115.5276382, 22.77389196 ], [ 115.527443, 22.77389601 ], [ 115.52728, 22.77381897 ], [ 115.526471, 22.77319401 ], [ 115.5260768, 22.77304101 ], [ 115.525832, 22.77285003 ], [ 115.5254659, 22.77238797 ], [ 115.525291, 22.77225603 ], [ 115.524999, 22.77099603 ], [ 115.525058, 22.769154 ] ] } },
{ "type": "Feature", "properties": { "岸段号": 97, "所在地": "汕尾市城区", "名称": "遮浪半岛西侧严格保护岸线", "管控类型": "严格保护岸线", "cd": 2.31603, "标注": "97-遮浪半岛西严格保护岸段", "比例尺": "", "名录名": "遮浪半岛西严格保护岸段", "F_": "-" }, "geometry": { "type": "LineString", "coordinates": [ [ 115.5565019, 22.66997202 ], [ 115.5559028, 22.670145 ], [ 115.5553999, 22.67046297 ], [ 115.554762, 22.67071902 ], [ 115.5531622, 22.67124003 ], [ 115.5522661, 22.67141697 ], [ 115.55122, 22.67153199 ], [ 115.5501119, 22.67173296 ], [ 115.54951, 22.67179704 ], [ 115.5490481, 22.671828 ], [ 115.548214, 22.67178597 ], [ 115.5480289, 22.67181801 ], [ 115.547724, 22.67205597 ], [ 115.5475199, 22.672071 ], [ 115.5463402, 22.67207199 ], [ 115.543957, 22.67187903 ], [ 115.5430231, 22.67172504 ], [ 115.5417941, 22.67135397 ], [ 115.5411659, 22.67124597 ], [ 115.5387301, 22.67023698 ], [ 115.5378071, 22.66993701 ], [ 115.5374071, 22.66973802 ], [ 115.5368729, 22.66934904 ], [ 115.5364718, 22.66882902 ], [ 115.536528, 22.66820001 ], [ 115.5364391, 22.66779402 ] ] } },
{ "type": "Feature", "properties": { "岸段号": 97, "所在地": "汕尾市城区", "名称": "遮浪半岛西侧严格保护岸线", "管控类型": "严格保护岸线", "cd": 0.884368, "标注": "97-遮浪半岛西严格保护岸段", "比例尺": "", "名录名": "遮浪半岛西严格保护岸段", "F_": "-" }, "geometry": { "type": "LineString", "coordinates": [ [ 115.532325, 22.67128503 ], [ 115.5323768, 22.67167203 ], [ 115.5325201, 22.67213004 ], [ 115.5325241, 22.67233101 ], [ 115.532402, 22.67275896 ], [ 115.5321821, 22.67315901 ], [ 115.5319679, 22.67341398 ], [ 115.531619, 22.67377803 ], [ 115.531133, 22.67416899 ], [ 115.5291959, 22.67513802 ], [ 115.5281108, 22.67543196 ], [ 115.5279251, 22.67543601 ], [ 115.52755, 22.67529399 ], [ 115.5273908, 22.67512704 ], [ 115.5271939, 22.67478504 ], [ 115.5269509, 22.67458398 ] ] } },
{ "type": "Feature", "properties": { "岸段号": 99, "所在地": "汕尾市城区", "名称": "捷胜镇南严格保护岸线", "管控类型": "严格保护岸线", "cd": 10.0105, "标注": "99-捷胜严格保护岸段", "比例尺": "", "名录名": "捷胜严格保护岸段", "F_": "-" }, "geometry": { "type": "LineString", "coordinates": [ [ 115.4691569, 22.70309697 ], [ 115.4690669, 22.70327004 ], [ 115.4688638, 22.70334699 ], [ 115.468186, 22.70356497 ], [ 115.4677849, 22.70358603 ], [ 115.4669501, 22.70349603 ], [ 115.4652311, 22.70341998 ], [ 115.4624749, 22.70337597 ], [ 115.459969, 22.70313297 ], [ 115.459425, 22.70302002 ], [ 115.4590211, 22.70283399 ], [ 115.458629, 22.70256903 ], [ 115.4584379, 22.70266803 ], [ 115.4584159, 22.702869 ], [ 115.4581571, 22.70287701 ], [ 115.458197, 22.70268396 ], [ 115.4581178, 22.70251197 ], [ 115.4573359, 22.70241999 ], [ 115.4563132, 22.70210202 ], [ 115.455605, 22.701933 ], [ 115.4532128, 22.70113299 ], [ 115.4530289, 22.70113101 ], [ 115.452869, 22.70129103 ], [ 115.452756, 22.70166399 ], [ 115.4519212, 22.701627 ], [ 115.4507861, 22.70138697 ], [ 115.4477009, 22.70047797 ], [ 115.4458868, 22.69971702 ], [ 115.4451082, 22.69929402 ], [ 115.4443432, 22.69897803 ], [ 115.4440001, 22.69874601 ], [ 115.443481, 22.69861704 ], [ 115.443112, 22.69857501 ], [ 115.4429759, 22.69871001 ], [ 115.442878, 22.69908801 ], [ 115.4427289, 22.69919403 ], [ 115.442131, 22.69924902 ], [ 115.4418721, 22.69932102 ], [ 115.441731, 22.69943703 ], [ 115.4413181, 22.70038797 ], [ 115.4410189, 22.70061504 ], [ 115.4403652, 22.70088198 ], [ 115.439778, 22.700871 ], [ 115.4395631, 22.70096397 ], [ 115.439472, 22.70115396 ], [ 115.439287, 22.701231 ], [ 115.4390911, 22.70121696 ], [ 115.43827, 22.70156796 ], [ 115.4379809, 22.70159397 ], [ 115.437749, 22.70156598 ], [ 115.435652, 22.70077101 ], [ 115.4347301, 22.700304 ], [ 115.4336659, 22.69971504 ], [ 115.4313281, 22.69805499 ], [ 115.4302751, 22.69716201 ], [ 115.4294579, 22.69653498 ], [ 115.4288261, 22.69576098 ], [ 115.4278282, 22.69483596 ], [ 115.427079, 22.69406799 ], [ 115.426422, 22.69329399 ], [ 115.4262809, 22.69315602 ], [ 115.4260789, 22.69312101 ], [ 115.42577, 22.69268901 ], [ 115.4254478, 22.69243404 ], [ 115.424568, 22.69145304 ], [ 115.4239099, 22.69049103 ], [ 115.4235251, 22.69004904 ], [ 115.4225189, 22.68925902 ], [ 115.4219231, 22.68902304 ], [ 115.4213359, 22.68898299 ], [ 115.4196709, 22.68931797 ], [ 115.417381, 22.68948798 ], [ 115.4157451, 22.68970299 ], [ 115.414303, 22.68996201 ], [ 115.413471, 22.69019304 ], [ 115.411451, 22.69052199 ], [ 115.4104261, 22.69076202 ], [ 115.4091431, 22.69094301 ], [ 115.4056039, 22.69128303 ], [ 115.4003861, 22.69150704 ], [ 115.398995, 22.69146096 ], [ 115.398067, 22.69135404 ], [ 115.396708, 22.69133199 ], [ 115.3954361, 22.69141803 ], [ 115.393181, 22.69140903 ], [ 115.390008, 22.69108701 ], [ 115.3876162, 22.69072296 ], [ 115.3858309, 22.69062198 ], [ 115.384329, 22.69036197 ], [ 115.383308, 22.69011996 ], [ 115.383154, 22.690026 ], [ 115.3827209, 22.68957303 ], [ 115.3823479, 22.68945 ] ] } },
{ "type": "Feature", "properties": { "岸段号": 99, "所在地": "汕尾市城区", "名称": "捷胜镇南严格保护岸线", "管控类型": "严格保护岸线", "cd": 1.45325, "标注": "99-捷胜严格保护岸段", "比例尺": "", "名录名": "捷胜严格保护岸段", "F_": "-" }, "geometry": { "type": "LineString", "coordinates": [ [ 115.5153089, 22.68604197 ], [ 115.514591, 22.68665199 ], [ 115.5142181, 22.68681498 ], [ 115.5135679, 22.68695799 ], [ 115.5121268, 22.68707301 ], [ 115.509177, 22.68684198 ], [ 115.508156, 22.68694197 ], [ 115.506733, 22.68715203 ], [ 115.5058981, 22.687236 ], [ 115.505249, 22.68724698 ], [ 115.50389, 22.68716004 ], [ 115.5024889, 22.68717498 ], [ 115.501982, 22.687101 ], [ 115.501604, 22.68693198 ] ] } },
{ "type": "Feature", "properties": { "岸段号": 103, "所在地": "汕尾市城区", "名称": "金町严格保护岸线", "管控类型": "严格保护岸线", "cd": 2.02896, "标注": "103-金町湾严格保护岸段", "比例尺": "", "名录名": "金町湾严格保护岸段", "F_": "-" }, "geometry": { "type": "LineString", "coordinates": [ [ 115.2520492, 22.78665801 ], [ 115.2516251, 22.78676898 ], [ 115.251215, 22.78710801 ], [ 115.250899, 22.78719801 ], [ 115.250351, 22.78721997 ], [ 115.24954, 22.78718703 ], [ 115.2481259, 22.78685403 ], [ 115.2477749, 22.78683099 ], [ 115.2456458, 22.78698804 ], [ 115.243888, 22.787199 ], [ 115.241873, 22.78730601 ], [ 115.2412909, 22.78730097 ], [ 115.2396061, 22.78714401 ], [ 115.2372172, 22.78666503 ], [ 115.234952, 22.78638297 ], [ 115.234313, 22.78611702 ], [ 115.2340081, 22.78553004 ], [ 115.2337309, 22.784832 ] ] } },
{ "type": "Feature", "properties": { "岸段号": 103, "所在地": "汕尾市城区", "名称": "金町严格保护岸线", "管控类型": "严格保护岸线", "cd": 7.73167, "标注": "103-金町湾严格保护岸段", "比例尺": "", "名录名": "金町湾严格保护岸段", "F_": "-" }, "geometry": { "type": "LineString", "coordinates": [ [ 115.338276, 22.78394109 ], [ 115.338618, 22.78470501 ], [ 115.3387681, 22.78484703 ], [ 115.3389578, 22.78492704 ], [ 115.3386832, 22.78517202 ], [ 115.338492, 22.78505898 ], [ 115.338307, 22.78507599 ], [ 115.3375391, 22.78532898 ], [ 115.3370171, 22.78560798 ], [ 115.3364969, 22.78573002 ], [ 115.3361768, 22.78573704 ], [ 115.335828, 22.785831 ], [ 115.333655, 22.78684899 ], [ 115.331224, 22.787739 ], [ 115.329582, 22.78854 ], [ 115.3284059, 22.78904004 ], [ 115.327318, 22.789377 ], [ 115.3264972, 22.789728 ], [ 115.3257829, 22.790124 ], [ 115.3230779, 22.79127402 ], [ 115.322454, 22.79148804 ], [ 115.3219759, 22.79175399 ], [ 115.3198001, 22.79242701 ], [ 115.319506, 22.79256003 ], [ 115.3187579, 22.79274597 ], [ 115.3189519, 22.793454 ], [ 115.3183219, 22.793598 ], [ 115.31794, 22.79289303 ], [ 115.3168549, 22.79313 ], [ 115.3161749, 22.79321496 ], [ 115.3142888, 22.793571 ], [ 115.3130828, 22.79374596 ], [ 115.3098529, 22.79406897 ], [ 115.309386, 22.79417499 ], [ 115.3091498, 22.794102 ], [ 115.3065211, 22.79428101 ], [ 115.304989, 22.79427804 ], [ 115.3041271, 22.79436696 ], [ 115.304049, 22.79457702 ], [ 115.302631, 22.79457603 ], [ 115.3012079, 22.79451798 ], [ 115.3005649, 22.79454804 ], [ 115.300521, 22.79474298 ], [ 115.3001992, 22.79477601 ], [ 115.3000969, 22.79447802 ], [ 115.2997711, 22.79437398 ], [ 115.2954878, 22.79428596 ], [ 115.2951322, 22.79440503 ], [ 115.2946919, 22.79421999 ], [ 115.292479, 22.794156 ], [ 115.289226, 22.79394504 ], [ 115.288898, 22.79402001 ], [ 115.288654, 22.79419596 ], [ 115.2884041, 22.79417904 ], [ 115.2884182, 22.79399499 ], [ 115.287313, 22.79384802 ], [ 115.2853949, 22.79380203 ], [ 115.2826492, 22.79350098 ], [ 115.2817178, 22.793454 ], [ 115.2782831, 22.79309904 ], [ 115.277405, 22.79306196 ], [ 115.275947, 22.79285496 ], [ 115.2741899, 22.79266596 ], [ 115.2737111, 22.79254797 ], [ 115.2733522, 22.79257299 ], [ 115.273175, 22.79282904 ], [ 115.2726851, 22.79284398 ], [ 115.2712699, 22.79257299 ], [ 115.270934, 22.79260503 ], [ 115.2707191, 22.79188098 ] ] } },
{ "type": "Feature", "properties": { "岸段号": 348, "所在地": "阳江市阳东区", "名称": "海头湾严格保护岸线", "管控类型": "严格保护岸线", "cd": 12.1091, "标注": "348-北津港严格保护岸段", "比例尺": "", "名录名": "北津港严格保护岸段", "F_": "-" }, "geometry": { "type": "LineString", "coordinates": [ [ 112.183762, 21.80485899 ], [ 112.1828062, 21.80526399 ], [ 112.179173, 21.80596401 ], [ 112.1774422, 21.806226 ], [ 112.1766491, 21.80646 ], [ 112.1756641, 21.80661399 ], [ 112.1750179, 21.80666601 ], [ 112.1747029, 21.80650599 ], [ 112.1727971, 21.80669004 ], [ 112.168768, 21.80694897 ], [ 112.165443, 21.80703501 ], [ 112.163134, 21.80700702 ], [ 112.1628931, 21.80720601 ], [ 112.1626631, 21.80721897 ], [ 112.1623171, 21.80705796 ], [ 112.1585731, 21.80699604 ], [ 112.154688, 21.80679597 ], [ 112.153923, 21.80688399 ], [ 112.1533222, 21.806847 ], [ 112.1527778, 21.80665998 ], [ 112.1520701, 21.80649096 ], [ 112.144027, 21.80565099 ], [ 112.1430791, 21.80534103 ], [ 112.1391511, 21.804633 ], [ 112.1332208, 21.803391 ], [ 112.1301601, 21.802707 ], [ 112.1254409, 21.801501 ], [ 112.1235379, 21.80113803 ], [ 112.1222351, 21.80083797 ], [ 112.1219039, 21.80085696 ], [ 112.12186, 21.80114703 ], [ 112.1224882, 21.80145303 ], [ 112.1221372, 21.80156004 ], [ 112.1213318, 21.80151801 ], [ 112.121154, 21.80135403 ], [ 112.1210708, 21.80111598 ], [ 112.1212418, 21.80092896 ], [ 112.1208091, 21.80052603 ], [ 112.120056, 21.80003202 ], [ 112.11845, 21.79968102 ], [ 112.1160128, 21.79891197 ], [ 112.1110481, 21.79716102 ], [ 112.1063641, 21.79560501 ], [ 112.103582, 21.794454 ], [ 112.1011981, 21.79335798 ], [ 112.0981561, 21.79228698 ], [ 112.0974998, 21.79171404 ], [ 112.097264, 21.79156599 ], [ 112.092723, 21.79007703 ], [ 112.0900619, 21.78894402 ], [ 112.0874479, 21.78751599 ], [ 112.0860331, 21.78698202 ], [ 112.084339, 21.78645903 ], [ 112.0831132, 21.78651897 ], [ 112.0815349, 21.78645597 ], [ 112.0775861, 21.78476397 ], [ 112.0756871, 21.78377298 ], [ 112.0743241, 21.78346797 ] ] } },
{ "type": "Feature", "properties": { "岸段号": 377, "所在地": "阳江市阳西县", "名称": "沙扒-河北严格保护岸线", "管控类型": "严格保护岸线", "cd": 6.40918, "标注": "377-河北港—沙扒严格保护岸段", "比例尺": "", "名录名": "河北港—沙扒严格保护岸段", "F_": "-" }, "geometry": { "type": "LineString", "coordinates": [ [ 111.542872, 21.51950103 ], [ 111.542575, 21.51948402 ], [ 111.5421019, 21.51967302 ], [ 111.5414071, 21.52023696 ], [ 111.540875, 21.520818 ], [ 111.5401259, 21.52149003 ], [ 111.5390549, 21.52227096 ], [ 111.5359031, 21.52364904 ], [ 111.533954, 21.52432602 ], [ 111.532977, 21.52439703 ], [ 111.5276782, 21.52527597 ], [ 111.5260639, 21.525264 ], [ 111.5235511, 21.52476198 ], [ 111.519018, 21.52371699 ], [ 111.5157251, 21.52256697 ], [ 111.5121571, 21.52107 ], [ 111.5097851, 21.52021302 ], [ 111.504312, 21.51723699 ], [ 111.5014241, 21.515283 ], [ 111.497945, 21.51317097 ], [ 111.4894249, 21.50731098 ], [ 111.489232, 21.50591103 ] ] } },
{ "type": "Feature", "properties": { "岸段号": 377, "所在地": "阳江市阳西县", "名称": "沙扒-河北严格保护岸线", "管控类型": "严格保护岸线", "cd": 8.79369, "标注": "377-河北港—沙扒严格保护岸段", "比例尺": "", "名录名": "河北港—沙扒严格保护岸段", "F_": "-" }, "geometry": { "type": "LineString", "coordinates": [ [ 111.6306101, 21.527685 ], [ 111.6282211, 21.52928304 ], [ 111.626199, 21.53055204 ], [ 111.6245639, 21.53147796 ], [ 111.621982, 21.53306196 ], [ 111.6205762, 21.53337003 ], [ 111.6182408, 21.53398401 ], [ 111.6132278, 21.53460096 ], [ 111.6110459, 21.53479104 ], [ 111.6094849, 21.53484198 ], [ 111.604801, 21.534768 ], [ 111.5989988, 21.53417598 ], [ 111.5974199, 21.53390103 ], [ 111.5930081, 21.532941 ], [ 111.589105, 21.53194101 ], [ 111.5853379, 21.53053098 ], [ 111.5827538, 21.529458 ], [ 111.5756629, 21.52598598 ], [ 111.5725741, 21.52427796 ], [ 111.568626, 21.52190799 ], [ 111.564257, 21.51901404 ], [ 111.5638679, 21.51881901 ], [ 111.562051, 21.51747801 ], [ 111.5590342, 21.51536904 ], [ 111.5577518, 21.51431397 ], [ 111.554591, 21.51260604 ], [ 111.5542019, 21.51224397 ] ] } },
{ "type": "Feature", "properties": { "岸段号": 461, "所在地": "湛江市雷州市", "名称": "纪家严格保护岸线", "管控类型": "严格保护岸线", "cd": 16.1755, "标注": "461-企水—蛋场港严格保护岸段", "比例尺": "", "名录名": "企水—蛋场港严格保护岸段", "F_": "-" }, "geometry": { "type": "LineString", "coordinates": [ [ 109.704433, 20.82762702 ], [ 109.7023759, 20.83034601 ], [ 109.700447, 20.83264497 ], [ 109.6973579, 20.83652496 ], [ 109.6893428, 20.84677101 ], [ 109.6886581, 20.847447 ], [ 109.686186, 20.85020703 ], [ 109.6842622, 20.85259698 ], [ 109.6841959, 20.85292197 ], [ 109.6832779, 20.85382296 ], [ 109.6819999, 20.855655 ], [ 109.6813199, 20.85703101 ], [ 109.6806611, 20.85780798 ], [ 109.6802719, 20.85835896 ], [ 109.6799101, 20.85934302 ], [ 109.679697, 20.85951204 ], [ 109.6794608, 20.859606 ], [ 109.67881, 20.86058898 ], [ 109.6776569, 20.863179 ], [ 109.6776659, 20.86360596 ], [ 109.6778131, 20.86380099 ], [ 109.677335, 20.864214 ], [ 109.6766579, 20.86495002 ], [ 109.675976, 20.86642197 ], [ 109.6759609, 20.86692102 ], [ 109.675579, 20.86722603 ], [ 109.6748089, 20.86868403 ], [ 109.674446, 20.87048304 ], [ 109.6742632, 20.87065296 ], [ 109.6735799, 20.87242704 ], [ 109.6725611, 20.87570097 ], [ 109.6720391, 20.87786601 ], [ 109.671948, 20.87881101 ], [ 109.6711189, 20.88232704 ], [ 109.6708219, 20.88393102 ], [ 109.670391, 20.88549 ], [ 109.670539, 20.88573498 ], [ 109.670454, 20.88591399 ], [ 109.670117, 20.88628803 ], [ 109.670008, 20.88662301 ], [ 109.669802, 20.887029 ], [ 109.6696091, 20.88792 ], [ 109.669604, 20.88916704 ], [ 109.6697131, 20.88976203 ], [ 109.6697632, 20.89035198 ], [ 109.6698719, 20.89076004 ], [ 109.6701221, 20.89111401 ], [ 109.670576, 20.89148004 ], [ 109.6710548, 20.89177596 ], [ 109.6701221, 20.89177596 ], [ 109.6697689, 20.89198197 ], [ 109.6693538, 20.89244196 ], [ 109.6693042, 20.89262403 ], [ 109.6694618, 20.89310202 ], [ 109.6691782, 20.89327797 ], [ 109.6686389, 20.892528 ], [ 109.668452, 20.89285101 ], [ 109.6683419, 20.89370403 ], [ 109.668452, 20.89400202 ], [ 109.668434, 20.89431702 ], [ 109.6683181, 20.89474596 ], [ 109.668208, 20.89566396 ], [ 109.6678271, 20.89661004 ], [ 109.6676348, 20.89735497 ], [ 109.6674368, 20.89769796 ], [ 109.6673299, 20.89825497 ], [ 109.6673501, 20.89847799 ], [ 109.6671931, 20.89908198 ], [ 109.6666301, 20.900259 ], [ 109.666449, 20.90130201 ], [ 109.666188, 20.90332899 ], [ 109.666188, 20.90394297 ], [ 109.6661228, 20.90436201 ], [ 109.666175, 20.90536101 ], [ 109.6661549, 20.90640501 ], [ 109.665981, 20.90721699 ], [ 109.665896, 20.90911896 ], [ 109.66599, 20.90952396 ], [ 109.6658111, 20.91008898 ], [ 109.6655839, 20.91202497 ], [ 109.6653121, 20.91346803 ], [ 109.6654028, 20.91582099 ], [ 109.6653989, 20.91765096 ], [ 109.665238, 20.91867102 ], [ 109.6652059, 20.92048101 ], [ 109.6651372, 20.92171203 ], [ 109.665108, 20.92586796 ], [ 109.6649651, 20.92990104 ], [ 109.66505, 20.933298 ], [ 109.6650479, 20.93543802 ], [ 109.6654111, 20.93789601 ], [ 109.6657448, 20.93843097 ], [ 109.6659691, 20.93933997 ], [ 109.6664371, 20.94047199 ], [ 109.66657, 20.94095997 ], [ 109.6665671, 20.94122403 ], [ 109.6662229, 20.94131304 ], [ 109.6664018, 20.94183198 ], [ 109.666661, 20.941731 ], [ 109.6669901, 20.94310701 ], [ 109.6683322, 20.94799896 ], [ 109.668838, 20.952135 ], [ 109.6689229, 20.95255503 ], [ 109.6690691, 20.95286202 ], [ 109.6690201, 20.95358598 ], [ 109.6692109, 20.95456104 ], [ 109.669198, 20.95488702 ], [ 109.6690151, 20.95579998 ], [ 109.669154, 20.95718103 ], [ 109.66928, 20.95770204 ] ] } }
]
}
