{
"type": "FeatureCollection",
"name": "选点",
"crs": { "type": "name", "properties": { "name": "urn:ogc:def:crs:OGC:1.3:CRS84" } },
"features": [
{ "type": "Feature", "properties": { "Id": 2 }, "geometry": { "type": "Point", "coordinates": [ 116.0506037, 22.84976412 ] } },
{ "type": "Feature", "properties": { "Id": 3 }, "geometry": { "type": "Point", "coordinates": [ 116.0553593, 22.85006724 ] } },
{ "type": "Feature", "properties": { "Id": 6 }, "geometry": { "type": "Point", "coordinates": [ 117.1252328, 23.57353512 ] } },
{ "type": "Feature", "properties": { "Id": 7 }, "geometry": { "type": "Point", "coordinates": [ 117.1467097, 23.59872405 ] } },
{ "type": "Feature", "properties": { "Id": 5 }, "geometry": { "type": "Point", "coordinates": [ 116.4153978, 22.93850484 ] } },
{ "type": "Feature", "properties": { "Id": 4 }, "geometry": { "type": "Point", "coordinates": [ 116.378518, 22.92957045 ] } },
{ "type": "Feature", "properties": { "Id": 1 }, "geometry": { "type": "Point", "coordinates": [ 115.5440776, 22.79347155 ] } }
]
}
